{
"type": "FeatureCollection",
"name": "boston-jurisdiction-overlay",
"crs": { "type": "name", "properties": { "name": "urn:ogc:def:crs:OGC:1.3:CRS84" } },
"xy_coordinate_resolution": 1e-06,
"features": [
{ "type": "Feature", "properties": { "name": "Boston" }, "geometry": { "type": "MultiPolygon", "coordinates": [ [ [ [ -71.044603, 42.295894 ], [ -71.044984, 42.295806 ], [ -71.045508, 42.295882 ], [ -71.045814, 42.296175 ], [ -71.046431, 42.298238 ], [ -71.045947, 42.298476 ], [ -71.044674, 42.297554 ], [ -71.044415, 42.29631 ], [ -71.044603, 42.295894 ] ] ], [ [ [ -70.951752, 42.313263 ], [ -70.951151, 42.313128 ], [ -70.949716, 42.312498 ], [ -70.949327, 42.312128 ], [ -70.949388, 42.311913 ], [ -70.949753, 42.311753 ], [ -70.951287, 42.311744 ], [ -70.951248, 42.311646 ], [ -70.950965, 42.311615 ], [ -70.951318, 42.3115 ], [ -70.951479, 42.311201 ], [ -70.951937, 42.311229 ], [ -70.952425, 42.310952 ], [ -70.952955, 42.311057 ], [ -70.953233, 42.311264 ], [ -70.953367, 42.311632 ], [ -70.953678, 42.311635 ], [ -70.954213, 42.311359 ], [ -70.95442, 42.310995 ], [ -70.954599, 42.310928 ], [ -70.954388, 42.310823 ], [ -70.954387, 42.31036 ], [ -70.954628, 42.309997 ], [ -70.955027, 42.309728 ], [ -70.955221, 42.309772 ], [ -70.955297, 42.310048 ], [ -70.955978, 42.310655 ], [ -70.956736, 42.310867 ], [ -70.957304, 42.310767 ], [ -70.957515, 42.31098 ], [ -70.957776, 42.310963 ], [ -70.958004, 42.311108 ], [ -70.957794, 42.311484 ], [ -70.956798, 42.311757 ], [ -70.955069, 42.311734 ], [ -70.954518, 42.311845 ], [ -70.954208, 42.31208 ], [ -70.954053, 42.312483 ], [ -70.952996, 42.313321 ], [ -70.952016, 42.313392 ], [ -70.952327, 42.313218 ], [ -70.951752, 42.313263 ] ] ], [ [ [ -71.001698, 42.321585 ], [ -71.001085, 42.321677 ], [ -71.00064, 42.321443 ], [ -70.999653, 42.321404 ], [ -70.999393, 42.321163 ], [ -70.999078, 42.321209 ], [ -70.998801, 42.321026 ], [ -70.998696, 42.321157 ], [ -70.998525, 42.320923 ], [ -70.998294, 42.320866 ], [ -70.99824, 42.320683 ], [ -70.998184, 42.321124 ], [ -70.997938, 42.321216 ], [ -70.997829, 42.320916 ], [ -70.997585, 42.320851 ], [ -70.998029, 42.320489 ], [ -70.997601, 42.320022 ], [ -70.997647, 42.319692 ], [ -70.998458, 42.318911 ], [ -70.998612, 42.318566 ], [ -70.999034, 42.318382 ], [ -70.999222, 42.318441 ], [ -70.998824, 42.318556 ], [ -70.998853, 42.318713 ], [ -70.999312, 42.318533 ], [ -70.99989, 42.318594 ], [ -71.001646, 42.319176 ], [ -71.002467, 42.319246 ], [ -71.003336, 42.319007 ], [ -71.004331, 42.318149 ], [ -71.005092, 42.317011 ], [ -71.005859, 42.316353 ], [ -71.006074, 42.315983 ], [ -71.006087, 42.315511 ], [ -71.005953, 42.31539 ], [ -71.005696, 42.315459 ], [ -71.005564, 42.315223 ], [ -71.005669, 42.314425 ], [ -71.006318, 42.314174 ], [ -71.006685, 42.314293 ], [ -71.007318, 42.312907 ], [ -71.007849, 42.312617 ], [ -71.008356, 42.312027 ], [ -71.009853, 42.310945 ], [ -71.010026, 42.310587 ], [ -71.01043, 42.31036 ], [ -71.010814, 42.309803 ], [ -71.010754, 42.308888 ], [ -71.009761, 42.307386 ], [ -71.009593, 42.305704 ], [ -71.009482, 42.305531 ], [ -71.00925, 42.305503 ], [ -71.009991, 42.30518 ], [ -71.010256, 42.305225 ], [ -71.010082, 42.305469 ], [ -71.010719, 42.305662 ], [ -71.010527, 42.305927 ], [ -71.010606, 42.306338 ], [ -71.010851, 42.306404 ], [ -71.010866, 42.306167 ], [ -71.011029, 42.306363 ], [ -71.011036, 42.306558 ], [ -71.010848, 42.306709 ], [ -71.011104, 42.307201 ], [ -71.011012, 42.30756 ], [ -71.012269, 42.308954 ], [ -71.012773, 42.309867 ], [ -71.013647, 42.310264 ], [ -71.014436, 42.310138 ], [ -71.014777, 42.310207 ], [ -71.01466, 42.309975 ], [ -71.015035, 42.309921 ], [ -71.014594, 42.309696 ], [ -71.014148, 42.309631 ], [ -71.013642, 42.309902 ], [ -71.013477, 42.309765 ], [ -71.013524, 42.309288 ], [ -71.014288, 42.309064 ], [ -71.015925, 42.309182 ], [ -71.016543, 42.309463 ], [ -71.016654, 42.309663 ], [ -71.015901, 42.309587 ], [ -71.015836, 42.309673 ], [ -71.016109, 42.309951 ], [ -71.016606, 42.309791 ], [ -71.016985, 42.309914 ], [ -71.017067, 42.310316 ], [ -71.016631, 42.310092 ], [ -71.016621, 42.310448 ], [ -71.016814, 42.310714 ], [ -71.01724, 42.310909 ], [ -71.017004, 42.310613 ], [ -71.017204, 42.310486 ], [ -71.017582, 42.311105 ], [ -71.017921, 42.311383 ], [ -71.017979, 42.312173 ], [ -71.018214, 42.312503 ], [ -71.018038, 42.313013 ], [ -71.017596, 42.313354 ], [ -71.017162, 42.314335 ], [ -71.016615, 42.314379 ], [ -71.016684, 42.314722 ], [ -71.016307, 42.3147 ], [ -71.015672, 42.315062 ], [ -71.014405, 42.315145 ], [ -71.013811, 42.3153 ], [ -71.012584, 42.315859 ], [ -71.011471, 42.316562 ], [ -71.010151, 42.317864 ], [ -71.009944, 42.318335 ], [ -71.009959, 42.318795 ], [ -71.009083, 42.319251 ], [ -71.008596, 42.319846 ], [ -71.007886, 42.320335 ], [ -71.007462, 42.320968 ], [ -71.005624, 42.321748 ], [ -71.004885, 42.321851 ], [ -71.004214, 42.321796 ], [ -71.002879, 42.322083 ], [ -71.001698, 42.321585 ] ] ], [ [ [ -70.930336, 42.321982 ], [ -70.929235, 42.322156 ], [ -70.928198, 42.322116 ], [ -70.927149, 42.321835 ], [ -70.926147, 42.321395 ], [ -70.925726, 42.320561 ], [ -70.925554, 42.319566 ], [ -70.925626, 42.318982 ], [ -70.926158, 42.317879 ], [ -70.926446, 42.317851 ], [ -70.926897, 42.318068 ], [ -70.927211, 42.318035 ], [ -70.927964, 42.317285 ], [ -70.928453, 42.317115 ], [ -70.928528, 42.317318 ], [ -70.929103, 42.317565 ], [ -70.92952, 42.317905 ], [ -70.929998, 42.318527 ], [ -70.930184, 42.319182 ], [ -70.930656, 42.319723 ], [ -70.9303, 42.320086 ], [ -70.930877, 42.321265 ], [ -70.930802, 42.321878 ], [ -70.930499, 42.322357 ], [ -70.930114, 42.322199 ], [ -70.930443, 42.322116 ], [ -70.930399, 42.321844 ], [ -70.930336, 42.321982 ] ] ], [ [ [ -70.940254, 42.32773 ], [ -70.939306, 42.327499 ], [ -70.937893, 42.326879 ], [ -70.936728, 42.326625 ], [ -70.936617, 42.326774 ], [ -70.934257, 42.326656 ], [ -70.933448, 42.32624 ], [ -70.933157, 42.325904 ], [ -70.933384, 42.325809 ], [ -70.934001, 42.32592 ], [ -70.934343, 42.325802 ], [ -70.936188, 42.325834 ], [ -70.937198, 42.325707 ], [ -70.938108, 42.325401 ], [ -70.93851, 42.325011 ], [ -70.93954, 42.324644 ], [ -70.939872, 42.324407 ], [ -70.939907, 42.324239 ], [ -70.940804, 42.324864 ], [ -70.941777, 42.325849 ], [ -70.942177, 42.32662 ], [ -70.942064, 42.327202 ], [ -70.941298, 42.327633 ], [ -70.941878, 42.326946 ], [ -70.941773, 42.326459 ], [ -70.9416, 42.326322 ], [ -70.941812, 42.326905 ], [ -70.941498, 42.327383 ], [ -70.9409, 42.32774 ], [ -70.940254, 42.32773 ] ] ], [ [ [ -70.983344, 42.328373 ], [ -70.982833, 42.328131 ], [ -70.982351, 42.327477 ], [ -70.983087, 42.326765 ], [ -70.984022, 42.326494 ], [ -70.984326, 42.326268 ], [ -70.984625, 42.325319 ], [ -70.984699, 42.324452 ], [ -70.984546, 42.323927 ], [ -70.983308, 42.323531 ], [ -70.983035, 42.323225 ], [ -70.983043, 42.322944 ], [ -70.983824, 42.322114 ], [ -70.983614, 42.321789 ], [ -70.983686, 42.32147 ], [ -70.984832, 42.320221 ], [ -70.985354, 42.319344 ], [ -70.986018, 42.318886 ], [ -70.98674, 42.318877 ], [ -70.987747, 42.319207 ], [ -70.98831, 42.320313 ], [ -70.988079, 42.320777 ], [ -70.988026, 42.321487 ], [ -70.988115, 42.322596 ], [ -70.988372, 42.323043 ], [ -70.987939, 42.323474 ], [ -70.988636, 42.323716 ], [ -70.988648, 42.323863 ], [ -70.988395, 42.324047 ], [ -70.988428, 42.324337 ], [ -70.988923, 42.324697 ], [ -70.989597, 42.324564 ], [ -70.989485, 42.324878 ], [ -70.989638, 42.3251 ], [ -70.990526, 42.325344 ], [ -70.991136, 42.325702 ], [ -70.991591, 42.326272 ], [ -70.99161, 42.326843 ], [ -70.991054, 42.32758 ], [ -70.990356, 42.328 ], [ -70.989922, 42.328061 ], [ -70.989546, 42.328493 ], [ -70.987985, 42.328657 ], [ -70.987384, 42.328888 ], [ -70.986211, 42.328625 ], [ -70.984182, 42.328553 ], [ -70.983344, 42.328373 ] ] ], [ [ [ -70.953693, 42.330481 ], [ -70.953561, 42.330028 ], [ -70.953885, 42.329659 ], [ -70.953929, 42.329287 ], [ -70.954642, 42.32896 ], [ -70.955869, 42.328786 ], [ -70.955926, 42.328635 ], [ -70.955451, 42.328386 ], [ -70.955442, 42.32827 ], [ -70.956818, 42.328228 ], [ -70.956876, 42.327988 ], [ -70.956348, 42.327921 ], [ -70.956235, 42.327799 ], [ -70.956862, 42.327581 ], [ -70.957468, 42.327615 ], [ -70.957825, 42.327198 ], [ -70.958797, 42.326911 ], [ -70.959131, 42.326625 ], [ -70.959871, 42.324774 ], [ -70.960819, 42.323374 ], [ -70.961971, 42.32212 ], [ -70.96349, 42.319855 ], [ -70.963834, 42.31912 ], [ -70.96397, 42.318369 ], [ -70.964672, 42.316943 ], [ -70.965232, 42.316288 ], [ -70.965737, 42.314661 ], [ -70.965667, 42.314493 ], [ -70.965506, 42.31469 ], [ -70.965143, 42.314535 ], [ -70.96486, 42.314732 ], [ -70.9647, 42.314696 ], [ -70.964973, 42.314294 ], [ -70.964986, 42.313991 ], [ -70.965612, 42.313907 ], [ -70.965582, 42.31358 ], [ -70.966397, 42.313278 ], [ -70.967839, 42.313277 ], [ -70.969095, 42.313029 ], [ -70.969889, 42.312401 ], [ -70.97066, 42.311432 ], [ -70.972734, 42.311026 ], [ -70.974476, 42.310303 ], [ -70.976542, 42.310222 ], [ -70.977003, 42.310325 ], [ -70.977115, 42.310637 ], [ -70.976686, 42.31107 ], [ -70.975962, 42.311488 ], [ -70.974817, 42.311926 ], [ -70.97329, 42.312918 ], [ -70.97242, 42.313752 ], [ -70.971272, 42.315195 ], [ -70.970929, 42.315911 ], [ -70.971281, 42.316414 ], [ -70.970831, 42.316284 ], [ -70.969687, 42.318094 ], [ -70.969339, 42.3191 ], [ -70.969205, 42.320451 ], [ -70.968529, 42.32194 ], [ -70.967255, 42.323412 ], [ -70.96538, 42.324609 ], [ -70.96531, 42.324844 ], [ -70.965455, 42.325193 ], [ -70.965251, 42.3255 ], [ -70.964352, 42.325982 ], [ -70.963565, 42.326236 ], [ -70.963113, 42.326631 ], [ -70.962103, 42.326774 ], [ -70.961195, 42.327237 ], [ -70.960256, 42.328216 ], [ -70.959813, 42.328888 ], [ -70.959204, 42.329405 ], [ -70.958827, 42.33047 ], [ -70.958087, 42.330899 ], [ -70.957114, 42.331072 ], [ -70.955962, 42.331065 ], [ -70.954635, 42.33083 ], [ -70.953973, 42.330496 ], [ -70.953693, 42.330481 ] ] ], [ [ [ -71.012875, 42.333846 ], [ -71.012447, 42.333738 ], [ -71.012874, 42.333271 ], [ -71.013541, 42.332089 ], [ -71.014065, 42.331578 ], [ -71.014449, 42.331605 ], [ -71.014396, 42.331885 ], [ -71.012875, 42.333846 ] ] ], [ [ [ -70.923508, 42.326995 ], [ -70.923352, 42.326636 ], [ -70.922776, 42.326646 ], [ -70.923349, 42.326289 ], [ -70.923379, 42.32575 ], [ -70.923533, 42.325558 ], [ -70.924063, 42.325243 ], [ -70.924462, 42.325198 ], [ -70.924294, 42.325083 ], [ -70.925439, 42.32525 ], [ -70.926018, 42.325377 ], [ -70.926348, 42.325591 ], [ -70.926488, 42.326459 ], [ -70.926759, 42.326952 ], [ -70.927121, 42.327382 ], [ -70.927639, 42.327516 ], [ -70.927931, 42.32789 ], [ -70.929499, 42.328482 ], [ -70.93119, 42.328498 ], [ -70.931626, 42.328624 ], [ -70.931922, 42.329149 ], [ -70.93177, 42.329383 ], [ -70.931103, 42.329818 ], [ -70.931023, 42.330983 ], [ -70.931195, 42.33129 ], [ -70.931743, 42.331623 ], [ -70.931573, 42.332287 ], [ -70.932073, 42.332733 ], [ -70.931927, 42.333066 ], [ -70.930315, 42.333642 ], [ -70.929874, 42.333607 ], [ -70.9298, 42.333196 ], [ -70.929252, 42.33254 ], [ -70.928042, 42.331707 ], [ -70.927207, 42.330694 ], [ -70.923508, 42.326995 ] ] ], [ [ [ -70.966387, 42.356592 ], [ -70.964492, 42.356766 ], [ -70.964256, 42.356521 ], [ -70.964436, 42.356203 ], [ -70.964341, 42.355966 ], [ -70.963559, 42.355565 ], [ -70.962988, 42.355416 ], [ -70.961393, 42.355577 ], [ -70.960939, 42.355881 ], [ -70.960365, 42.356019 ], [ -70.959718, 42.355978 ], [ -70.959147, 42.355801 ], [ -70.956054, 42.35379 ], [ -70.955541, 42.353082 ], [ -70.954965, 42.352648 ], [ -70.953871, 42.351392 ], [ -70.953497, 42.350731 ], [ -70.953394, 42.35009 ], [ -70.953985, 42.350839 ], [ -70.953351, 42.349824 ], [ -70.953296, 42.349496 ], [ -70.953392, 42.349353 ], [ -70.954035, 42.349153 ], [ -70.953704, 42.349026 ], [ -70.95364, 42.347477 ], [ -70.953101, 42.345722 ], [ -70.952866, 42.344013 ], [ -70.953633, 42.343723 ], [ -70.954218, 42.344023 ], [ -70.954444, 42.344023 ], [ -70.954371, 42.3437 ], [ -70.953971, 42.343213 ], [ -70.954003, 42.343005 ], [ -70.954752, 42.344217 ], [ -70.955255, 42.344168 ], [ -70.955326, 42.343906 ], [ -70.956019, 42.34392 ], [ -70.955929, 42.344537 ], [ -70.956141, 42.344312 ], [ -70.956522, 42.344546 ], [ -70.956627, 42.344749 ], [ -70.95646, 42.344885 ], [ -70.956487, 42.345136 ], [ -70.956858, 42.34496 ], [ -70.958251, 42.346475 ], [ -70.958337, 42.347243 ], [ -70.958753, 42.347886 ], [ -70.959002, 42.347878 ], [ -70.95897, 42.347732 ], [ -70.959075, 42.347792 ], [ -70.960644, 42.349166 ], [ -70.960225, 42.3491 ], [ -70.961275, 42.349425 ], [ -70.962227, 42.349897 ], [ -70.962808, 42.350415 ], [ -70.963218, 42.350526 ], [ -70.963322, 42.350719 ], [ -70.964159, 42.350695 ], [ -70.964468, 42.350823 ], [ -70.964993, 42.351262 ], [ -70.965496, 42.351963 ], [ -70.965487, 42.352339 ], [ -70.965176, 42.352633 ], [ -70.965364, 42.353014 ], [ -70.965965, 42.353377 ], [ -70.967932, 42.354059 ], [ -70.968738, 42.354572 ], [ -70.968855, 42.354938 ], [ -70.968449, 42.355624 ], [ -70.968821, 42.355866 ], [ -70.96725, 42.357058 ], [ -70.966387, 42.356592 ] ] ], [ [ [ -71.074249, 42.390503 ], [ -71.073985, 42.390503 ], [ -71.072478, 42.387864 ], [ -71.069818, 42.386425 ], [ -71.070227, 42.38612 ], [ -71.069744, 42.385759 ], [ -71.068316, 42.38538 ], [ -71.067937, 42.385697 ], [ -71.066273, 42.385488 ], [ -71.066169, 42.385296 ], [ -71.065019, 42.384864 ], [ -71.06461, 42.385213 ], [ -71.063443, 42.385091 ], [ -71.064298, 42.383826 ], [ -71.06402, 42.383608 ], [ -71.063821, 42.383743 ], [ -71.06347, 42.383649 ], [ -71.062464, 42.384932 ], [ -71.062327, 42.384906 ], [ -71.062088, 42.38523 ], [ -71.060469, 42.385085 ], [ -71.060484, 42.384888 ], [ -71.061242, 42.384956 ], [ -71.062266, 42.383428 ], [ -71.06185, 42.383586 ], [ -71.061462, 42.384 ], [ -71.06154, 42.383745 ], [ -71.061416, 42.383708 ], [ -71.061593, 42.38331 ], [ -71.061072, 42.383273 ], [ -71.059924, 42.384803 ], [ -71.059597, 42.384681 ], [ -71.060693, 42.383202 ], [ -71.060083, 42.383202 ], [ -71.058775, 42.384897 ], [ -71.058294, 42.384848 ], [ -71.058294, 42.384768 ], [ -71.050928, 42.384094 ], [ -71.050949, 42.383955 ], [ -71.050318, 42.383868 ], [ -71.049994, 42.383656 ], [ -71.049619, 42.383901 ], [ -71.049013, 42.383827 ], [ -71.048544, 42.383694 ], [ -71.048574, 42.383566 ], [ -71.047912, 42.38316 ], [ -71.047429, 42.38242 ], [ -71.047492, 42.381765 ], [ -71.049229, 42.382108 ], [ -71.049804, 42.381646 ], [ -71.049773, 42.381556 ], [ -71.047333, 42.38117 ], [ -71.047666, 42.379905 ], [ -71.050932, 42.38041 ], [ -71.051465, 42.380633 ], [ -71.05733, 42.38147 ], [ -71.057055, 42.381659 ], [ -71.057393, 42.38177 ], [ -71.057626, 42.381542 ], [ -71.058284, 42.381527 ], [ -71.058583, 42.381243 ], [ -71.058246, 42.380802 ], [ -71.056823, 42.380344 ], [ -71.055433, 42.380079 ], [ -71.054215, 42.380041 ], [ -71.054225, 42.379922 ], [ -71.053322, 42.379981 ], [ -71.052293, 42.379832 ], [ -71.051016, 42.379426 ], [ -71.050796, 42.379665 ], [ -71.049283, 42.379402 ], [ -71.048868, 42.379442 ], [ -71.048152, 42.379221 ], [ -71.047491, 42.376921 ], [ -71.047816, 42.376998 ], [ -71.049141, 42.378055 ], [ -71.049266, 42.377874 ], [ -71.048086, 42.376837 ], [ -71.048957, 42.3775 ], [ -71.049624, 42.376766 ], [ -71.049958, 42.376052 ], [ -71.048711, 42.375219 ], [ -71.048909, 42.375053 ], [ -71.049642, 42.375526 ], [ -71.05013, 42.375218 ], [ -71.050334, 42.37539 ], [ -71.050612, 42.375121 ], [ -71.048676, 42.373402 ], [ -71.048887, 42.373065 ], [ -71.049021, 42.373092 ], [ -71.050547, 42.374422 ], [ -71.050695, 42.373895 ], [ -71.049202, 42.372567 ], [ -71.04931, 42.372396 ], [ -71.05076, 42.373629 ], [ -71.0512, 42.373263 ], [ -71.049616, 42.371893 ], [ -71.049955, 42.37167 ], [ -71.051587, 42.373035 ], [ -71.052094, 42.372723 ], [ -71.050485, 42.371342 ], [ -71.050691, 42.371231 ], [ -71.054163, 42.374181 ], [ -71.054595, 42.374409 ], [ -71.05474, 42.374287 ], [ -71.054582, 42.374052 ], [ -71.053031, 42.372762 ], [ -71.053071, 42.372649 ], [ -71.052849, 42.37245 ], [ -71.053065, 42.372348 ], [ -71.053783, 42.372996 ], [ -71.054421, 42.372721 ], [ -71.054688, 42.372842 ], [ -71.055058, 42.372623 ], [ -71.054201, 42.371811 ], [ -71.054794, 42.37172 ], [ -71.056918, 42.372731 ], [ -71.057746, 42.372254 ], [ -71.05611, 42.371401 ], [ -71.057655, 42.370658 ], [ -71.059298, 42.37138 ], [ -71.059618, 42.37136 ], [ -71.059927, 42.371128 ], [ -71.059579, 42.370657 ], [ -71.059819, 42.37052 ], [ -71.059994, 42.370676 ], [ -71.060246, 42.370565 ], [ -71.060093, 42.370338 ], [ -71.060301, 42.370228 ], [ -71.060083, 42.369746 ], [ -71.060493, 42.369999 ], [ -71.061045, 42.369865 ], [ -71.061322, 42.369609 ], [ -71.061053, 42.368849 ], [ -71.060672, 42.368932 ], [ -71.060633, 42.368849 ], [ -71.061076, 42.368768 ], [ -71.060911, 42.368333 ], [ -71.060699, 42.368288 ], [ -71.060733, 42.36805 ], [ -71.060917, 42.368008 ], [ -71.060627, 42.367243 ], [ -71.059042, 42.367886 ], [ -71.058777, 42.36758 ], [ -71.058711, 42.367965 ], [ -71.058243, 42.367962 ], [ -71.057317, 42.368726 ], [ -71.056612, 42.368936 ], [ -71.055541, 42.36907 ], [ -71.055156, 42.368969 ], [ -71.054872, 42.369162 ], [ -71.053435, 42.368738 ], [ -71.053202, 42.368934 ], [ -71.052808, 42.368675 ], [ -71.052004, 42.369674 ], [ -71.051735, 42.369557 ], [ -71.052166, 42.368912 ], [ -71.051709, 42.368702 ], [ -71.051196, 42.369359 ], [ -71.05092, 42.369268 ], [ -71.051812, 42.368151 ], [ -71.051284, 42.367889 ], [ -71.050237, 42.368865 ], [ -71.049996, 42.368712 ], [ -71.051252, 42.367569 ], [ -71.050806, 42.367232 ], [ -71.049834, 42.367835 ], [ -71.049298, 42.367021 ], [ -71.050333, 42.366815 ], [ -71.050345, 42.366684 ], [ -71.049202, 42.366817 ], [ -71.04913, 42.366538 ], [ -71.049578, 42.366483 ], [ -71.049529, 42.366361 ], [ -71.049093, 42.366346 ], [ -71.049085, 42.36613 ], [ -71.049294, 42.365992 ], [ -71.049995, 42.366006 ], [ -71.050008, 42.365777 ], [ -71.049777, 42.36568 ], [ -71.049706, 42.365468 ], [ -71.048755, 42.365287 ], [ -71.048764, 42.364881 ], [ -71.05075, 42.365082 ], [ -71.050889, 42.365048 ], [ -71.05088, 42.364854 ], [ -71.049547, 42.364705 ], [ -71.04955, 42.364581 ], [ -71.049241, 42.364528 ], [ -71.049437, 42.363775 ], [ -71.049642, 42.363784 ], [ -71.049688, 42.363551 ], [ -71.048381, 42.363512 ], [ -71.048269, 42.363167 ], [ -71.048578, 42.363168 ], [ -71.048522, 42.363294 ], [ -71.049012, 42.363415 ], [ -71.049067, 42.362854 ], [ -71.048224, 42.362949 ], [ -71.048168, 42.362692 ], [ -71.048934, 42.362526 ], [ -71.048953, 42.362709 ], [ -71.049018, 42.36249 ], [ -71.050787, 42.36296 ], [ -71.050757, 42.362578 ], [ -71.049064, 42.36207 ], [ -71.048772, 42.362122 ], [ -71.048912, 42.362028 ], [ -71.048699, 42.361743 ], [ -71.047944, 42.36187 ], [ -71.0479, 42.361686 ], [ -71.049414, 42.361405 ], [ -71.049525, 42.361685 ], [ -71.050516, 42.361966 ], [ -71.050621, 42.361782 ], [ -71.050801, 42.361854 ], [ -71.050728, 42.360626 ], [ -71.049293, 42.360666 ], [ -71.049089, 42.360323 ], [ -71.047689, 42.360612 ], [ -71.047664, 42.360046 ], [ -71.050609, 42.359644 ], [ -71.050625, 42.359246 ], [ -71.048453, 42.359565 ], [ -71.048453, 42.358954 ], [ -71.049575, 42.35895 ], [ -71.050306, 42.358813 ], [ -71.050144, 42.358236 ], [ -71.049431, 42.358299 ], [ -71.04947, 42.357644 ], [ -71.049733, 42.357565 ], [ -71.049665, 42.357344 ], [ -71.04907, 42.357484 ], [ -71.048946, 42.357333 ], [ -71.048944, 42.357171 ], [ -71.049839, 42.356982 ], [ -71.049817, 42.356862 ], [ -71.0492, 42.356862 ], [ -71.04921, 42.356565 ], [ -71.049797, 42.35657 ], [ -71.049984, 42.356121 ], [ -71.049592, 42.356296 ], [ -71.04949, 42.356152 ], [ -71.050713, 42.354433 ], [ -71.051088, 42.354684 ], [ -71.051448, 42.35443 ], [ -71.050963, 42.354057 ], [ -71.051752, 42.352903 ], [ -71.051919, 42.352922 ], [ -71.052228, 42.352549 ], [ -71.052093, 42.352385 ], [ -71.052444, 42.351678 ], [ -71.052699, 42.351486 ], [ -71.055722, 42.347001 ], [ -71.059123, 42.345716 ], [ -71.059157, 42.345425 ], [ -71.059748, 42.345169 ], [ -71.060144, 42.345172 ], [ -71.060708, 42.34449 ], [ -71.060519, 42.343949 ], [ -71.060598, 42.343567 ], [ -71.060801, 42.343226 ], [ -71.061208, 42.342955 ], [ -71.060952, 42.34282 ], [ -71.060284, 42.343077 ], [ -71.06014, 42.344151 ], [ -71.058062, 42.345422 ], [ -71.05728, 42.345639 ], [ -71.054839, 42.345823 ], [ -71.053126, 42.348265 ], [ -71.048129, 42.354415 ], [ -71.047163, 42.354909 ], [ -71.046512, 42.355088 ], [ -71.044795, 42.355093 ], [ -71.043573, 42.354693 ], [ -71.044451, 42.353383 ], [ -71.0435, 42.352928 ], [ -71.043283, 42.352943 ], [ -71.043044, 42.353148 ], [ -71.042313, 42.3529 ], [ -71.041561, 42.353873 ], [ -71.040971, 42.353629 ], [ -71.042966, 42.351083 ], [ -71.042508, 42.350886 ], [ -71.042736, 42.350606 ], [ -71.042167, 42.350364 ], [ -71.039983, 42.35324 ], [ -71.03868, 42.3527 ], [ -71.040831, 42.349839 ], [ -71.039892, 42.349445 ], [ -71.037738, 42.352305 ], [ -71.036731, 42.351892 ], [ -71.038029, 42.350145 ], [ -71.037799, 42.350052 ], [ -71.037909, 42.349908 ], [ -71.038151, 42.349997 ], [ -71.03821, 42.349903 ], [ -71.037865, 42.349775 ], [ -71.037946, 42.34968 ], [ -71.038297, 42.349798 ], [ -71.038743, 42.349185 ], [ -71.037754, 42.348755 ], [ -71.03752, 42.348598 ], [ -71.037598, 42.348488 ], [ -71.037225, 42.348334 ], [ -71.036524, 42.349261 ], [ -71.035827, 42.348998 ], [ -71.034207, 42.351141 ], [ -71.033874, 42.351018 ], [ -71.034046, 42.350792 ], [ -71.033664, 42.350641 ], [ -71.033488, 42.350866 ], [ -71.03319, 42.350744 ], [ -71.034751, 42.348567 ], [ -71.033796, 42.348154 ], [ -71.032124, 42.350318 ], [ -71.027482, 42.348446 ], [ -71.027053, 42.348173 ], [ -71.026216, 42.347957 ], [ -71.026109, 42.348096 ], [ -71.023237, 42.346926 ], [ -71.023195, 42.345694 ], [ -71.026544, 42.34565 ], [ -71.026551, 42.345061 ], [ -71.025915, 42.345059 ], [ -71.025585, 42.344677 ], [ -71.025587, 42.344454 ], [ -71.021902, 42.344498 ], [ -71.021913, 42.343522 ], [ -71.037172, 42.343279 ], [ -71.037794, 42.343661 ], [ -71.038463, 42.343595 ], [ -71.038686, 42.343396 ], [ -71.038739, 42.342744 ], [ -71.04033, 42.341134 ], [ -71.040857, 42.340221 ], [ -71.04184, 42.339537 ], [ -71.041551, 42.3395 ], [ -71.041022, 42.339158 ], [ -71.040805, 42.339268 ], [ -71.040656, 42.339654 ], [ -71.040174, 42.339694 ], [ -71.039971, 42.339488 ], [ -71.04003, 42.338816 ], [ -71.039858, 42.338549 ], [ -71.039835, 42.339951 ], [ -71.039356, 42.340157 ], [ -71.038965, 42.341577 ], [ -71.03722, 42.341588 ], [ -71.035949, 42.341771 ], [ -71.035177, 42.341672 ], [ -71.03505, 42.341222 ], [ -71.03516, 42.340511 ], [ -71.034896, 42.340413 ], [ -71.033731, 42.340413 ], [ -71.033744, 42.341496 ], [ -71.030405, 42.341538 ], [ -71.030391, 42.34023 ], [ -71.029404, 42.340256 ], [ -71.029412, 42.341421 ], [ -71.029222, 42.341728 ], [ -71.028154, 42.341782 ], [ -71.026959, 42.341309 ], [ -71.026529, 42.341287 ], [ -71.026361, 42.341542 ], [ -71.026035, 42.341649 ], [ -71.025093, 42.341585 ], [ -71.025125, 42.341857 ], [ -71.014154, 42.341997 ], [ -71.010792, 42.339806 ], [ -71.010991, 42.33961 ], [ -71.010581, 42.339241 ], [ -71.010135, 42.339245 ], [ -71.01003, 42.339049 ], [ -71.009965, 42.339307 ], [ -71.009662, 42.33885 ], [ -71.009327, 42.337666 ], [ -71.008988, 42.337175 ], [ -71.00898, 42.336452 ], [ -71.008285, 42.335953 ], [ -71.009085, 42.336028 ], [ -71.009621, 42.335421 ], [ -71.010662, 42.335459 ], [ -71.011268, 42.335069 ], [ -71.011822, 42.334896 ], [ -71.01238, 42.333838 ], [ -71.012868, 42.334033 ], [ -71.012676, 42.334909 ], [ -71.012885, 42.335367 ], [ -71.01222, 42.336275 ], [ -71.012337, 42.336777 ], [ -71.012647, 42.337225 ], [ -71.013047, 42.337124 ], [ -71.013162, 42.337269 ], [ -71.012934, 42.337347 ], [ -71.012763, 42.337807 ], [ -71.013482, 42.338115 ], [ -71.014358, 42.338136 ], [ -71.015685, 42.338424 ], [ -71.018135, 42.338389 ], [ -71.019962, 42.338174 ], [ -71.021288, 42.337706 ], [ -71.022042, 42.337204 ], [ -71.022655, 42.33655 ], [ -71.023026, 42.335631 ], [ -71.023024, 42.335138 ], [ -71.022801, 42.334596 ], [ -71.021451, 42.332907 ], [ -71.018888, 42.331423 ], [ -71.017018, 42.330894 ], [ -71.01572, 42.330736 ], [ -71.015598, 42.330889 ], [ -71.015309, 42.330889 ], [ -71.014687, 42.331401 ], [ -71.014707, 42.331206 ], [ -71.015157, 42.330858 ], [ -71.01493, 42.330634 ], [ -71.015094, 42.33049 ], [ -71.015513, 42.330451 ], [ -71.015738, 42.330659 ], [ -71.01789, 42.330966 ], [ -71.020246, 42.331719 ], [ -71.02089, 42.331393 ], [ -71.021722, 42.331385 ], [ -71.023737, 42.332478 ], [ -71.024336, 42.332632 ], [ -71.02522, 42.33255 ], [ -71.025271, 42.332677 ], [ -71.025445, 42.332661 ], [ -71.025782, 42.332578 ], [ -71.026247, 42.332209 ], [ -71.028627, 42.331361 ], [ -71.028868, 42.331023 ], [ -71.029253, 42.330919 ], [ -71.030214, 42.330305 ], [ -71.030679, 42.329864 ], [ -71.031572, 42.329652 ], [ -71.032298, 42.329252 ], [ -71.032819, 42.328756 ], [ -71.036243, 42.328132 ], [ -71.036816, 42.328559 ], [ -71.037344, 42.328577 ], [ -71.038091, 42.328907 ], [ -71.040039, 42.328765 ], [ -71.04082, 42.329038 ], [ -71.041241, 42.329063 ], [ -71.043616, 42.328963 ], [ -71.04512, 42.328476 ], [ -71.045763, 42.328106 ], [ -71.046698, 42.326932 ], [ -71.04694, 42.326442 ], [ -71.047086, 42.325557 ], [ -71.046989, 42.325005 ], [ -71.046453, 42.323918 ], [ -71.045523, 42.323393 ], [ -71.044158, 42.322965 ], [ -71.044479, 42.322955 ], [ -71.043821, 42.322621 ], [ -71.043545, 42.322251 ], [ -71.043422, 42.322478 ], [ -71.04302, 42.321936 ], [ -71.042528, 42.321575 ], [ -71.041098, 42.321078 ], [ -71.040321, 42.320595 ], [ -71.03977, 42.320446 ], [ -71.037863, 42.319391 ], [ -71.03839, 42.319452 ], [ -71.038314, 42.319395 ], [ -71.036724, 42.3187 ], [ -71.036673, 42.31858 ], [ -71.037147, 42.318265 ], [ -71.036771, 42.318262 ], [ -71.036353, 42.317571 ], [ -71.036999, 42.317586 ], [ -71.033102, 42.316459 ], [ -71.032926, 42.313943 ], [ -71.032691, 42.313399 ], [ -71.032888, 42.313165 ], [ -71.033321, 42.31309 ], [ -71.033946, 42.312655 ], [ -71.036928, 42.310403 ], [ -71.037578, 42.310295 ], [ -71.037842, 42.310356 ], [ -71.044056, 42.314166 ], [ -71.044509, 42.314257 ], [ -71.046092, 42.313438 ], [ -71.04623, 42.313112 ], [ -71.045691, 42.312789 ], [ -71.045516, 42.312535 ], [ -71.045138, 42.312621 ], [ -71.044763, 42.312465 ], [ -71.043984, 42.31173 ], [ -71.043773, 42.31115 ], [ -71.043843, 42.31087 ], [ -71.044856, 42.310308 ], [ -71.044856, 42.310132 ], [ -71.043728, 42.310142 ], [ -71.042692, 42.310398 ], [ -71.042059, 42.311048 ], [ -71.041881, 42.310951 ], [ -71.042082, 42.310472 ], [ -71.042011, 42.310007 ], [ -71.042392, 42.309457 ], [ -71.043145, 42.308953 ], [ -71.043658, 42.308986 ], [ -71.044474, 42.308699 ], [ -71.04458, 42.308381 ], [ -71.044498, 42.30782 ], [ -71.044605, 42.307749 ], [ -71.04477, 42.307825 ], [ -71.044737, 42.307526 ], [ -71.045343, 42.307258 ], [ -71.046094, 42.305059 ], [ -71.04651, 42.304448 ], [ -71.047534, 42.303818 ], [ -71.047973, 42.304037 ], [ -71.04794, 42.304402 ], [ -71.048346, 42.304524 ], [ -71.047991, 42.306804 ], [ -71.048323, 42.307574 ], [ -71.048769, 42.307789 ], [ -71.052414, 42.307851 ], [ -71.052378, 42.307716 ], [ -71.052926, 42.307541 ], [ -71.053111, 42.307255 ], [ -71.053127, 42.306558 ], [ -71.052771, 42.306405 ], [ -71.053343, 42.306468 ], [ -71.053435, 42.306353 ], [ -71.052865, 42.30518 ], [ -71.052187, 42.304893 ], [ -71.052436, 42.304583 ], [ -71.052355, 42.304491 ], [ -71.049706, 42.302157 ], [ -71.04942, 42.302309 ], [ -71.049008, 42.303206 ], [ -71.048558, 42.303634 ], [ -71.048416, 42.303456 ], [ -71.047784, 42.303213 ], [ -71.048117, 42.302647 ], [ -71.04818, 42.302096 ], [ -71.047981, 42.302248 ], [ -71.047872, 42.302804 ], [ -71.047656, 42.302304 ], [ -71.047039, 42.302332 ], [ -71.046867, 42.302747 ], [ -71.046965, 42.303082 ], [ -71.04368, 42.302395 ], [ -71.043356, 42.301856 ], [ -71.04337, 42.301067 ], [ -71.043518, 42.30055 ], [ -71.043799, 42.300294 ], [ -71.043482, 42.29983 ], [ -71.043839, 42.299877 ], [ -71.044048, 42.299563 ], [ -71.045622, 42.298915 ], [ -71.045779, 42.299089 ], [ -71.046042, 42.298978 ], [ -71.045922, 42.298763 ], [ -71.046652, 42.298348 ], [ -71.046587, 42.29801 ], [ -71.046425, 42.297971 ], [ -71.046533, 42.297902 ], [ -71.046412, 42.297405 ], [ -71.04586, 42.295993 ], [ -71.04463, 42.293871 ], [ -71.044349, 42.293792 ], [ -71.044029, 42.293862 ], [ -71.043205, 42.293082 ], [ -71.042663, 42.292852 ], [ -71.042365, 42.29256 ], [ -71.04178, 42.290948 ], [ -71.041953, 42.29027 ], [ -71.041878, 42.289323 ], [ -71.041586, 42.289371 ], [ -71.041607, 42.291298 ], [ -71.042075, 42.292275 ], [ -71.042119, 42.293367 ], [ -71.041248, 42.293315 ], [ -71.041142, 42.292906 ], [ -71.040916, 42.292909 ], [ -71.04089, 42.293046 ], [ -71.039681, 42.292947 ], [ -71.039461, 42.29256 ], [ -71.039127, 42.292555 ], [ -71.039536, 42.292131 ], [ -71.039188, 42.292252 ], [ -71.038865, 42.291471 ], [ -71.038972, 42.29131 ], [ -71.038679, 42.291399 ], [ -71.037762, 42.290831 ], [ -71.037808, 42.289743 ], [ -71.037466, 42.289191 ], [ -71.037505, 42.288966 ], [ -71.037651, 42.288945 ], [ -71.037323, 42.288288 ], [ -71.037793, 42.287357 ], [ -71.038207, 42.286958 ], [ -71.038567, 42.28674 ], [ -71.038989, 42.286956 ], [ -71.039071, 42.286858 ], [ -71.039047, 42.286646 ], [ -71.038412, 42.286086 ], [ -71.040318, 42.284688 ], [ -71.04089, 42.284414 ], [ -71.041481, 42.283447 ], [ -71.041754, 42.279229 ], [ -71.042026, 42.278721 ], [ -71.042837, 42.277991 ], [ -71.042782, 42.277102 ], [ -71.043904, 42.276455 ], [ -71.044338, 42.276323 ], [ -71.045376, 42.276281 ], [ -71.045813, 42.276385 ], [ -71.048583, 42.277914 ], [ -71.049802, 42.2781 ], [ -71.052597, 42.277669 ], [ -71.053284, 42.277502 ], [ -71.054401, 42.277019 ], [ -71.055245, 42.276343 ], [ -71.055585, 42.275709 ], [ -71.055575, 42.275052 ], [ -71.054986, 42.274155 ], [ -71.053712, 42.273051 ], [ -71.053501, 42.272677 ], [ -71.053489, 42.272246 ], [ -71.053691, 42.271816 ], [ -71.060979, 42.267454 ], [ -71.061828, 42.267208 ], [ -71.062189, 42.267159 ], [ -71.063102, 42.267344 ], [ -71.063513, 42.26756 ], [ -71.064695, 42.268607 ], [ -71.065033, 42.269286 ], [ -71.064782, 42.270167 ], [ -71.065459, 42.271008 ], [ -71.066036, 42.271269 ], [ -71.067522, 42.271506 ], [ -71.067824, 42.271386 ], [ -71.068051, 42.270957 ], [ -71.06941, 42.27062 ], [ -71.070568, 42.27063 ], [ -71.07168, 42.270855 ], [ -71.072431, 42.270687 ], [ -71.073198, 42.270287 ], [ -71.074831, 42.270254 ], [ -71.076054, 42.270524 ], [ -71.076856, 42.270455 ], [ -71.078876, 42.269582 ], [ -71.080852, 42.269322 ], [ -71.082615, 42.268643 ], [ -71.084241, 42.268827 ], [ -71.089051, 42.269766 ], [ -71.08982, 42.269539 ], [ -71.090191, 42.269076 ], [ -71.089859, 42.267776 ], [ -71.090215, 42.266654 ], [ -71.090818, 42.26648 ], [ -71.092737, 42.266747 ], [ -71.09341, 42.267082 ], [ -71.094131, 42.267132 ], [ -71.094594, 42.266793 ], [ -71.095354, 42.26563 ], [ -71.096432, 42.264737 ], [ -71.097483, 42.263089 ], [ -71.098864, 42.26259 ], [ -71.100732, 42.261071 ], [ -71.102799, 42.259792 ], [ -71.103824, 42.259736 ], [ -71.105002, 42.260804 ], [ -71.105542, 42.260873 ], [ -71.107586, 42.26068 ], [ -71.108126, 42.260881 ], [ -71.108473, 42.261174 ], [ -71.108955, 42.261297 ], [ -71.110465, 42.261124 ], [ -71.111461, 42.260769 ], [ -71.113325, 42.25899 ], [ -71.109544, 42.255412 ], [ -71.109347, 42.24799 ], [ -71.126377, 42.239162 ], [ -71.125681, 42.237901 ], [ -71.124763, 42.237429 ], [ -71.124084, 42.236388 ], [ -71.122638, 42.23538 ], [ -71.122464, 42.234931 ], [ -71.122604, 42.234437 ], [ -71.122938, 42.234249 ], [ -71.124053, 42.234322 ], [ -71.124462, 42.234161 ], [ -71.124719, 42.233745 ], [ -71.124524, 42.232904 ], [ -71.12523, 42.232057 ], [ -71.125477, 42.231883 ], [ -71.125952, 42.231817 ], [ -71.126609, 42.231264 ], [ -71.12753, 42.231115 ], [ -71.128252, 42.230184 ], [ -71.12883, 42.229769 ], [ -71.129202, 42.228967 ], [ -71.129486, 42.228782 ], [ -71.130101, 42.228668 ], [ -71.130749, 42.227911 ], [ -71.142677, 42.235979 ], [ -71.146643, 42.255756 ], [ -71.152312, 42.258336 ], [ -71.158593, 42.255148 ], [ -71.171324, 42.265348 ], [ -71.171379, 42.265905 ], [ -71.171695, 42.266278 ], [ -71.173607, 42.266748 ], [ -71.174317, 42.267179 ], [ -71.174582, 42.267851 ], [ -71.174501, 42.268651 ], [ -71.173216, 42.269777 ], [ -71.172953, 42.270298 ], [ -71.174785, 42.273407 ], [ -71.174853, 42.274139 ], [ -71.174416, 42.275049 ], [ -71.174764, 42.275842 ], [ -71.176364, 42.276645 ], [ -71.176924, 42.276837 ], [ -71.177461, 42.276868 ], [ -71.183048, 42.275853 ], [ -71.183257, 42.275994 ], [ -71.185358, 42.279591 ], [ -71.187809, 42.280265 ], [ -71.18993, 42.28129 ], [ -71.190753, 42.281841 ], [ -71.190975, 42.282124 ], [ -71.191249, 42.282991 ], [ -71.178612, 42.29461 ], [ -71.164702, 42.30383 ], [ -71.152113, 42.294588 ], [ -71.146883, 42.29728 ], [ -71.140096, 42.302173 ], [ -71.136502, 42.306204 ], [ -71.134452, 42.309106 ], [ -71.131863, 42.313178 ], [ -71.124276, 42.32185 ], [ -71.123712, 42.322716 ], [ -71.123368, 42.322572 ], [ -71.121529, 42.323883 ], [ -71.12007, 42.322805 ], [ -71.119437, 42.322735 ], [ -71.11887, 42.322858 ], [ -71.118509, 42.323116 ], [ -71.118398, 42.323455 ], [ -71.116773, 42.32377 ], [ -71.116537, 42.323939 ], [ -71.115948, 42.325735 ], [ -71.115965, 42.326379 ], [ -71.115272, 42.326935 ], [ -71.11504, 42.327308 ], [ -71.113559, 42.330504 ], [ -71.113255, 42.332397 ], [ -71.112192, 42.333801 ], [ -71.110533, 42.33533 ], [ -71.11099, 42.335757 ], [ -71.110708, 42.336309 ], [ -71.11156, 42.337332 ], [ -71.110885, 42.338884 ], [ -71.110579, 42.340443 ], [ -71.109554, 42.341494 ], [ -71.108445, 42.341851 ], [ -71.108028, 42.342479 ], [ -71.106514, 42.343106 ], [ -71.106072, 42.343583 ], [ -71.105516, 42.343812 ], [ -71.107142, 42.347046 ], [ -71.10655, 42.349791 ], [ -71.122873, 42.351755 ], [ -71.122942, 42.351416 ], [ -71.124136, 42.351544 ], [ -71.126399, 42.350216 ], [ -71.12746, 42.349928 ], [ -71.128583, 42.349833 ], [ -71.128728, 42.349463 ], [ -71.129069, 42.34917 ], [ -71.133381, 42.347122 ], [ -71.135278, 42.345941 ], [ -71.140786, 42.341529 ], [ -71.141633, 42.340711 ], [ -71.141939, 42.340008 ], [ -71.144212, 42.340022 ], [ -71.146245, 42.338595 ], [ -71.146606, 42.338537 ], [ -71.146156, 42.337442 ], [ -71.148742, 42.336865 ], [ -71.148295, 42.335807 ], [ -71.150059, 42.335393 ], [ -71.150461, 42.334968 ], [ -71.149853, 42.334635 ], [ -71.157037, 42.33039 ], [ -71.159633, 42.332876 ], [ -71.161405, 42.333725 ], [ -71.162713, 42.333884 ], [ -71.167528, 42.33336 ], [ -71.168189, 42.33479 ], [ -71.16857, 42.335143 ], [ -71.168886, 42.335826 ], [ -71.168859, 42.336304 ], [ -71.169217, 42.338068 ], [ -71.168633, 42.338629 ], [ -71.166808, 42.33929 ], [ -71.166683, 42.340104 ], [ -71.17485, 42.350337 ], [ -71.173916, 42.353465 ], [ -71.167509, 42.360083 ], [ -71.166473, 42.359975 ], [ -71.165877, 42.359795 ], [ -71.164574, 42.358805 ], [ -71.163888, 42.358523 ], [ -71.162601, 42.358509 ], [ -71.161878, 42.358736 ], [ -71.160518, 42.359497 ], [ -71.159278, 42.359902 ], [ -71.157819, 42.359984 ], [ -71.156361, 42.359852 ], [ -71.155246, 42.359895 ], [ -71.154089, 42.360142 ], [ -71.152476, 42.360678 ], [ -71.148084, 42.361205 ], [ -71.147297, 42.361636 ], [ -71.146336, 42.362475 ], [ -71.14524, 42.36415 ], [ -71.144492, 42.364822 ], [ -71.144065, 42.365004 ], [ -71.142909, 42.365026 ], [ -71.140408, 42.364401 ], [ -71.139692, 42.364475 ], [ -71.139147, 42.364703 ], [ -71.136658, 42.366752 ], [ -71.135719, 42.367274 ], [ -71.133803, 42.367942 ], [ -71.132117, 42.369146 ], [ -71.13179, 42.369686 ], [ -71.131788, 42.370063 ], [ -71.132182, 42.370901 ], [ -71.133091, 42.371976 ], [ -71.133087, 42.372741 ], [ -71.132719, 42.373199 ], [ -71.13207, 42.373595 ], [ -71.131525, 42.373802 ], [ -71.130169, 42.373961 ], [ -71.128615, 42.373737 ], [ -71.12701, 42.372839 ], [ -71.126024, 42.371948 ], [ -71.124454, 42.369512 ], [ -71.123827, 42.369157 ], [ -71.122044, 42.368703 ], [ -71.11955, 42.368838 ], [ -71.11896, 42.36876 ], [ -71.11819, 42.368529 ], [ -71.117692, 42.368146 ], [ -71.117082, 42.367033 ], [ -71.116873, 42.365885 ], [ -71.116936, 42.363677 ], [ -71.116578, 42.359567 ], [ -71.117166, 42.356998 ], [ -71.117066, 42.355867 ], [ -71.116853, 42.355385 ], [ -71.11591, 42.354531 ], [ -71.114916, 42.353861 ], [ -71.113207, 42.353115 ], [ -71.11246, 42.352903 ], [ -71.110083, 42.352549 ], [ -71.104318, 42.352403 ], [ -71.097245, 42.353192 ], [ -71.093041, 42.353885 ], [ -71.091002, 42.354397 ], [ -71.077952, 42.358735 ], [ -71.07681, 42.359504 ], [ -71.076093, 42.36038 ], [ -71.074793, 42.363773 ], [ -71.073721, 42.365057 ], [ -71.069478, 42.369046 ], [ -71.063984, 42.368932 ], [ -71.067115, 42.371816 ], [ -71.072466, 42.372658 ], [ -71.075657, 42.380196 ], [ -71.080702, 42.38104 ], [ -71.080971, 42.382323 ], [ -71.079713, 42.382921 ], [ -71.074249, 42.390503 ] ] ], [ [ [ -71.06741, 42.393476 ], [ -71.069121, 42.391779 ], [ -71.070633, 42.38962 ], [ -71.071152, 42.389868 ], [ -71.070672, 42.390513 ], [ -71.071458, 42.391444 ], [ -71.071435, 42.391833 ], [ -71.070628, 42.392469 ], [ -71.070088, 42.392409 ], [ -71.069905, 42.392528 ], [ -71.06937, 42.393101 ], [ -71.069273, 42.39348 ], [ -71.068908, 42.393749 ], [ -71.069037, 42.393885 ], [ -71.067365, 42.395301 ], [ -71.06686, 42.394976 ], [ -71.067029, 42.394532 ], [ -71.066971, 42.394246 ], [ -71.06741, 42.393476 ] ] ], [ [ [ -70.995462, 42.39393 ], [ -70.994931, 42.393498 ], [ -70.994261, 42.393297 ], [ -70.994342, 42.393178 ], [ -70.994174, 42.393088 ], [ -70.993975, 42.39311 ], [ -70.99381, 42.392918 ], [ -70.993501, 42.392924 ], [ -70.992838, 42.392673 ], [ -70.992436, 42.392642 ], [ -70.991426, 42.39302 ], [ -70.989771, 42.39324 ], [ -70.988459, 42.393009 ], [ -70.987532, 42.392544 ], [ -70.987111, 42.392007 ], [ -70.987564, 42.39062 ], [ -70.987592, 42.389535 ], [ -70.987369, 42.388853 ], [ -70.986645, 42.387992 ], [ -70.986428, 42.387468 ], [ -70.986685, 42.387046 ], [ -70.987026, 42.38691 ], [ -70.98795, 42.386967 ], [ -70.988443, 42.387275 ], [ -70.989132, 42.387434 ], [ -70.990015, 42.38746 ], [ -70.99083, 42.387151 ], [ -70.991759, 42.386363 ], [ -70.992244, 42.386315 ], [ -70.992727, 42.386428 ], [ -70.993319, 42.38634 ], [ -70.994033, 42.386094 ], [ -70.994502, 42.385728 ], [ -70.994499, 42.385941 ], [ -70.994726, 42.385456 ], [ -70.994944, 42.385414 ], [ -70.995179, 42.385898 ], [ -70.995241, 42.385513 ], [ -70.995015, 42.385204 ], [ -70.995153, 42.385023 ], [ -70.995132, 42.384327 ], [ -70.994727, 42.384072 ], [ -70.994873, 42.384017 ], [ -70.994851, 42.38382 ], [ -70.994621, 42.383735 ], [ -70.994971, 42.383313 ], [ -70.995228, 42.383577 ], [ -70.995553, 42.383648 ], [ -70.995176, 42.383269 ], [ -70.995164, 42.382887 ], [ -70.994616, 42.38271 ], [ -70.994941, 42.381599 ], [ -70.995197, 42.381374 ], [ -70.99617, 42.381137 ], [ -70.996412, 42.380774 ], [ -70.997256, 42.380912 ], [ -71.000348, 42.381905 ], [ -71.001539, 42.382616 ], [ -71.002582, 42.382973 ], [ -71.003157, 42.383017 ], [ -71.003576, 42.382648 ], [ -71.00382, 42.38268 ], [ -71.004016, 42.38283 ], [ -71.004248, 42.383546 ], [ -71.004676, 42.383819 ], [ -71.005845, 42.383609 ], [ -71.006579, 42.383857 ], [ -71.008491, 42.383944 ], [ -71.009568, 42.383614 ], [ -71.010121, 42.383078 ], [ -71.010133, 42.382722 ], [ -71.010363, 42.382564 ], [ -71.010573, 42.382016 ], [ -71.010752, 42.380704 ], [ -71.010987, 42.380467 ], [ -71.011574, 42.380361 ], [ -71.011909, 42.380474 ], [ -71.012419, 42.380882 ], [ -71.012894, 42.380776 ], [ -71.013206, 42.380155 ], [ -71.013133, 42.379817 ], [ -71.013259, 42.379484 ], [ -71.013704, 42.379451 ], [ -71.014572, 42.379059 ], [ -71.014659, 42.378852 ], [ -71.01554, 42.378464 ], [ -71.016152, 42.377988 ], [ -71.016816, 42.377849 ], [ -71.018484, 42.378646 ], [ -71.01856, 42.378576 ], [ -71.017786, 42.378229 ], [ -71.017135, 42.377679 ], [ -71.016843, 42.377578 ], [ -71.016265, 42.377574 ], [ -71.013632, 42.378347 ], [ -71.01214, 42.377841 ], [ -71.013354, 42.377496 ], [ -71.01378, 42.376973 ], [ -71.013067, 42.377279 ], [ -71.01258, 42.377318 ], [ -71.012375, 42.377249 ], [ -71.012376, 42.376866 ], [ -71.012049, 42.376864 ], [ -71.011986, 42.37594 ], [ -71.012607, 42.374613 ], [ -71.012933, 42.374538 ], [ -71.013606, 42.374653 ], [ -71.013867, 42.375079 ], [ -71.014167, 42.375126 ], [ -71.014903, 42.375007 ], [ -71.015101, 42.374532 ], [ -71.015815, 42.374079 ], [ -71.01627, 42.374252 ], [ -71.015744, 42.373888 ], [ -71.015012, 42.374415 ], [ -71.014754, 42.37484 ], [ -71.014184, 42.374965 ], [ -71.014357, 42.374198 ], [ -71.015118, 42.373558 ], [ -71.014184, 42.374054 ], [ -71.013933, 42.374384 ], [ -71.013316, 42.37422 ], [ -71.013031, 42.374029 ], [ -71.013064, 42.373874 ], [ -71.01409, 42.373749 ], [ -71.01419, 42.373685 ], [ -71.014047, 42.373685 ], [ -71.01408, 42.37354 ], [ -71.013495, 42.373619 ], [ -71.013093, 42.373539 ], [ -71.012766, 42.372979 ], [ -71.012562, 42.372094 ], [ -71.012285, 42.372137 ], [ -71.012078, 42.371997 ], [ -71.011594, 42.371962 ], [ -71.011101, 42.372013 ], [ -71.010439, 42.372895 ], [ -71.010529, 42.373335 ], [ -71.010396, 42.373681 ], [ -71.010099, 42.373895 ], [ -71.009544, 42.374699 ], [ -71.009175, 42.374927 ], [ -71.009296, 42.375176 ], [ -71.009205, 42.375582 ], [ -71.008447, 42.37719 ], [ -71.007876, 42.37778 ], [ -71.008206, 42.377924 ], [ -71.007859, 42.378148 ], [ -71.007993, 42.378339 ], [ -71.006895, 42.379411 ], [ -71.00692, 42.379629 ], [ -71.006505, 42.379588 ], [ -71.006286, 42.379102 ], [ -71.00595, 42.37911 ], [ -71.005923, 42.379552 ], [ -71.005703, 42.379629 ], [ -71.004033, 42.379156 ], [ -71.003355, 42.378725 ], [ -71.003483, 42.379004 ], [ -71.003099, 42.378929 ], [ -71.003081, 42.378585 ], [ -71.002707, 42.378843 ], [ -71.002452, 42.378714 ], [ -71.002671, 42.378651 ], [ -71.002369, 42.378392 ], [ -71.000085, 42.377769 ], [ -71.006124, 42.376052 ], [ -71.01036, 42.365039 ], [ -71.000695, 42.364641 ], [ -71.000173, 42.36349 ], [ -70.999859, 42.363246 ], [ -70.999518, 42.36317 ], [ -70.99944, 42.363017 ], [ -70.998834, 42.362788 ], [ -70.998659, 42.36297 ], [ -70.998366, 42.362792 ], [ -70.997124, 42.363126 ], [ -70.996252, 42.362941 ], [ -70.994602, 42.362987 ], [ -70.993106, 42.362766 ], [ -70.991403, 42.362022 ], [ -70.989544, 42.362112 ], [ -70.988072, 42.361914 ], [ -70.987305, 42.361238 ], [ -70.98689, 42.360205 ], [ -70.98683, 42.359413 ], [ -70.986276, 42.357906 ], [ -70.986341, 42.357654 ], [ -70.990187, 42.354825 ], [ -70.989863, 42.354944 ], [ -70.990573, 42.354296 ], [ -70.99148, 42.353774 ], [ -70.992028, 42.353696 ], [ -70.992707, 42.353861 ], [ -70.994559, 42.353903 ], [ -70.996164, 42.355249 ], [ -70.996728, 42.355231 ], [ -70.998138, 42.35477 ], [ -70.998459, 42.355035 ], [ -70.998381, 42.355196 ], [ -70.997908, 42.355231 ], [ -70.998036, 42.355391 ], [ -70.999421, 42.355742 ], [ -71.000794, 42.355843 ], [ -71.001474, 42.356021 ], [ -71.003759, 42.355604 ], [ -71.00381, 42.355473 ], [ -71.003009, 42.355143 ], [ -71.002589, 42.354644 ], [ -71.002839, 42.35431 ], [ -71.003647, 42.354059 ], [ -71.004496, 42.352035 ], [ -71.004965, 42.349256 ], [ -71.004965, 42.347781 ], [ -71.004805, 42.347106 ], [ -71.006486, 42.346703 ], [ -71.006728, 42.346485 ], [ -71.007084, 42.346589 ], [ -71.007179, 42.346732 ], [ -71.007783, 42.346707 ], [ -71.016788, 42.35248 ], [ -71.028221, 42.358073 ], [ -71.02758, 42.359424 ], [ -71.027588, 42.359806 ], [ -71.0273, 42.360036 ], [ -71.02629, 42.362278 ], [ -71.02618, 42.364014 ], [ -71.02686, 42.364794 ], [ -71.027771, 42.365159 ], [ -71.02846, 42.364277 ], [ -71.028191, 42.363975 ], [ -71.028346, 42.363339 ], [ -71.028758, 42.363229 ], [ -71.028904, 42.362999 ], [ -71.029082, 42.363165 ], [ -71.029349, 42.362977 ], [ -71.029574, 42.363293 ], [ -71.029792, 42.363225 ], [ -71.029778, 42.363554 ], [ -71.029897, 42.363611 ], [ -71.029935, 42.363374 ], [ -71.030271, 42.363349 ], [ -71.030643, 42.362957 ], [ -71.030671, 42.363287 ], [ -71.030748, 42.362984 ], [ -71.031321, 42.362996 ], [ -71.031455, 42.36246 ], [ -71.031508, 42.363285 ], [ -71.031808, 42.363165 ], [ -71.031799, 42.3633 ], [ -71.031921, 42.36331 ], [ -71.031998, 42.362382 ], [ -71.03204, 42.362647 ], [ -71.032391, 42.362703 ], [ -71.032518, 42.361315 ], [ -71.032627, 42.361326 ], [ -71.032525, 42.362479 ], [ -71.032785, 42.362692 ], [ -71.033527, 42.362739 ], [ -71.033765, 42.3605 ], [ -71.033934, 42.360503 ], [ -71.033651, 42.363325 ], [ -71.033927, 42.363442 ], [ -71.035579, 42.361387 ], [ -71.035732, 42.36145 ], [ -71.034081, 42.363509 ], [ -71.034304, 42.364037 ], [ -71.034649, 42.363871 ], [ -71.034493, 42.363779 ], [ -71.035468, 42.362562 ], [ -71.035566, 42.362646 ], [ -71.034812, 42.363727 ], [ -71.035297, 42.363151 ], [ -71.035529, 42.363111 ], [ -71.03558, 42.363226 ], [ -71.035358, 42.363304 ], [ -71.035011, 42.363945 ], [ -71.035934, 42.36425 ], [ -71.037351, 42.362384 ], [ -71.038126, 42.362717 ], [ -71.036667, 42.364566 ], [ -71.037234, 42.364826 ], [ -71.037428, 42.36489 ], [ -71.03753, 42.36469 ], [ -71.037848, 42.364631 ], [ -71.037728, 42.364532 ], [ -71.038914, 42.363065 ], [ -71.03972, 42.36341 ], [ -71.038559, 42.364978 ], [ -71.03921, 42.365246 ], [ -71.039435, 42.365181 ], [ -71.040683, 42.363838 ], [ -71.041842, 42.364412 ], [ -71.040618, 42.365799 ], [ -71.042342, 42.366391 ], [ -71.041774, 42.367219 ], [ -71.042144, 42.367322 ], [ -71.042584, 42.366915 ], [ -71.042929, 42.367235 ], [ -71.042677, 42.367847 ], [ -71.042205, 42.368437 ], [ -71.042409, 42.368541 ], [ -71.042731, 42.368375 ], [ -71.042903, 42.368409 ], [ -71.042786, 42.368828 ], [ -71.043154, 42.36909 ], [ -71.043029, 42.369314 ], [ -71.04401, 42.369685 ], [ -71.044611, 42.369484 ], [ -71.043994, 42.370374 ], [ -71.044508, 42.370626 ], [ -71.044687, 42.370428 ], [ -71.044963, 42.370539 ], [ -71.044789, 42.370941 ], [ -71.045002, 42.371101 ], [ -71.044934, 42.371353 ], [ -71.044648, 42.37161 ], [ -71.044821, 42.371683 ], [ -71.044722, 42.371817 ], [ -71.044419, 42.371723 ], [ -71.043925, 42.371905 ], [ -71.045106, 42.372473 ], [ -71.045032, 42.372584 ], [ -71.044124, 42.372205 ], [ -71.043893, 42.372517 ], [ -71.044887, 42.372982 ], [ -71.044708, 42.373156 ], [ -71.044026, 42.372842 ], [ -71.043627, 42.372866 ], [ -71.042618, 42.372558 ], [ -71.042398, 42.372826 ], [ -71.04267, 42.373164 ], [ -71.042432, 42.373711 ], [ -71.041952, 42.373815 ], [ -71.041817, 42.374088 ], [ -71.041953, 42.374272 ], [ -71.041667, 42.374155 ], [ -71.041385, 42.374229 ], [ -71.04163, 42.374821 ], [ -71.042061, 42.375252 ], [ -71.041802, 42.375628 ], [ -71.042318, 42.375776 ], [ -71.042189, 42.376036 ], [ -71.04124, 42.375846 ], [ -71.041139, 42.376419 ], [ -71.041319, 42.376498 ], [ -71.041319, 42.377 ], [ -71.043253, 42.376993 ], [ -71.043258, 42.377109 ], [ -71.042151, 42.377135 ], [ -71.042184, 42.377932 ], [ -71.042861, 42.377896 ], [ -71.042866, 42.378207 ], [ -71.042716, 42.378211 ], [ -71.042877, 42.378653 ], [ -71.041767, 42.378715 ], [ -71.041701, 42.379256 ], [ -71.041541, 42.379258 ], [ -71.041793, 42.380551 ], [ -71.041995, 42.380776 ], [ -71.042194, 42.382167 ], [ -71.041012, 42.382243 ], [ -71.040836, 42.382766 ], [ -71.040556, 42.383087 ], [ -71.040743, 42.383358 ], [ -71.040571, 42.383808 ], [ -71.040293, 42.383737 ], [ -71.040198, 42.383468 ], [ -71.039741, 42.383259 ], [ -71.039593, 42.383344 ], [ -71.039483, 42.384018 ], [ -71.038691, 42.384097 ], [ -71.038418, 42.384492 ], [ -71.038291, 42.384061 ], [ -71.03811, 42.384004 ], [ -71.03726, 42.384 ], [ -71.037265, 42.384164 ], [ -71.036807, 42.384163 ], [ -71.036669, 42.384533 ], [ -71.036141, 42.384489 ], [ -71.036131, 42.384287 ], [ -71.035832, 42.384087 ], [ -71.035216, 42.384043 ], [ -71.035182, 42.384782 ], [ -71.033491, 42.384399 ], [ -71.03333, 42.383289 ], [ -71.032901, 42.382881 ], [ -71.031213, 42.382942 ], [ -71.030752, 42.383263 ], [ -71.030763, 42.383672 ], [ -71.030324, 42.383519 ], [ -71.030096, 42.383174 ], [ -71.029961, 42.383245 ], [ -71.029946, 42.383599 ], [ -71.028975, 42.383551 ], [ -71.028881, 42.383086 ], [ -71.028475, 42.382829 ], [ -71.027205, 42.382756 ], [ -71.027172, 42.38331 ], [ -71.026893, 42.383633 ], [ -71.024936, 42.384394 ], [ -71.022865, 42.385453 ], [ -71.021845, 42.38611 ], [ -71.020904, 42.386432 ], [ -71.020826, 42.386311 ], [ -71.020278, 42.386201 ], [ -71.019754, 42.386306 ], [ -71.019478, 42.38649 ], [ -71.017915, 42.388246 ], [ -71.017968, 42.388568 ], [ -71.017659, 42.388546 ], [ -71.016558, 42.389912 ], [ -71.016667, 42.390106 ], [ -71.016517, 42.390202 ], [ -71.01639, 42.390135 ], [ -71.016214, 42.390308 ], [ -71.014673, 42.392204 ], [ -71.015782, 42.392948 ], [ -71.01588, 42.393176 ], [ -71.01575, 42.393958 ], [ -71.015379, 42.394155 ], [ -71.014632, 42.39504 ], [ -71.013409, 42.395458 ], [ -71.012247, 42.39563 ], [ -71.011954, 42.395768 ], [ -71.009895, 42.395475 ], [ -71.008945, 42.395192 ], [ -71.005862, 42.393892 ], [ -71.005385, 42.394088 ], [ -71.001407, 42.39674 ], [ -70.998768, 42.396974 ], [ -70.998306, 42.396929 ], [ -70.996476, 42.396308 ], [ -70.995462, 42.39393 ] ] ] ] } },
{ "type": "Feature", "properties": { "name": "Brookline" }, "geometry": { "type": "Polygon", "coordinates": [ [ [ -71.122873, 42.351755 ], [ -71.10655, 42.349791 ], [ -71.107142, 42.347046 ], [ -71.105516, 42.343812 ], [ -71.106072, 42.343583 ], [ -71.106514, 42.343106 ], [ -71.108028, 42.342479 ], [ -71.108445, 42.341851 ], [ -71.109554, 42.341494 ], [ -71.110579, 42.340443 ], [ -71.110885, 42.338884 ], [ -71.11156, 42.337332 ], [ -71.110708, 42.336309 ], [ -71.11099, 42.335757 ], [ -71.110533, 42.33533 ], [ -71.112192, 42.333801 ], [ -71.113255, 42.332397 ], [ -71.113559, 42.330504 ], [ -71.11504, 42.327308 ], [ -71.115272, 42.326935 ], [ -71.115965, 42.326379 ], [ -71.115948, 42.325735 ], [ -71.116537, 42.323939 ], [ -71.116773, 42.32377 ], [ -71.118398, 42.323455 ], [ -71.118509, 42.323116 ], [ -71.11887, 42.322858 ], [ -71.119437, 42.322735 ], [ -71.12007, 42.322805 ], [ -71.121529, 42.323883 ], [ -71.123368, 42.322572 ], [ -71.123712, 42.322716 ], [ -71.124276, 42.32185 ], [ -71.131863, 42.313178 ], [ -71.134452, 42.309106 ], [ -71.136502, 42.306204 ], [ -71.140096, 42.302173 ], [ -71.146883, 42.29728 ], [ -71.152113, 42.294588 ], [ -71.164702, 42.30383 ], [ -71.166091, 42.304469 ], [ -71.169844, 42.307644 ], [ -71.178935, 42.314316 ], [ -71.170068, 42.32068 ], [ -71.170485, 42.321538 ], [ -71.169174, 42.321891 ], [ -71.169285, 42.322122 ], [ -71.167348, 42.322641 ], [ -71.156887, 42.330241 ], [ -71.157037, 42.33039 ], [ -71.149853, 42.334635 ], [ -71.150461, 42.334968 ], [ -71.150059, 42.335393 ], [ -71.148295, 42.335807 ], [ -71.148742, 42.336865 ], [ -71.146156, 42.337442 ], [ -71.146606, 42.338537 ], [ -71.146245, 42.338595 ], [ -71.144212, 42.340022 ], [ -71.141939, 42.340008 ], [ -71.141633, 42.340711 ], [ -71.140786, 42.341529 ], [ -71.135278, 42.345941 ], [ -71.133381, 42.347122 ], [ -71.129069, 42.34917 ], [ -71.128728, 42.349463 ], [ -71.128583, 42.349833 ], [ -71.12746, 42.349928 ], [ -71.126594, 42.350144 ], [ -71.125847, 42.350474 ], [ -71.124136, 42.351544 ], [ -71.122942, 42.351416 ], [ -71.122873, 42.351755 ] ] ] } },
{ "type": "Feature", "properties": { "name": "Cambridge" }, "geometry": { "type": "Polygon", "coordinates": [ [ [ -71.134568, 42.404208 ], [ -71.1313, 42.40158 ], [ -71.124314, 42.393585 ], [ -71.122839, 42.392243 ], [ -71.120975, 42.393707 ], [ -71.120215, 42.392642 ], [ -71.117063, 42.389565 ], [ -71.117988, 42.389079 ], [ -71.117441, 42.388376 ], [ -71.118194, 42.38801 ], [ -71.116874, 42.386701 ], [ -71.115489, 42.385037 ], [ -71.111691, 42.381768 ], [ -71.110699, 42.381687 ], [ -71.107849, 42.37937 ], [ -71.108458, 42.379112 ], [ -71.103141, 42.374329 ], [ -71.097463, 42.374431 ], [ -71.093633, 42.374248 ], [ -71.089783, 42.373948 ], [ -71.086088, 42.373059 ], [ -71.085444, 42.374045 ], [ -71.084952, 42.37346 ], [ -71.084411, 42.373301 ], [ -71.082414, 42.37341 ], [ -71.082001, 42.373555 ], [ -71.081686, 42.373945 ], [ -71.081197, 42.374056 ], [ -71.080364, 42.374118 ], [ -71.079957, 42.373808 ], [ -71.079266, 42.374161 ], [ -71.078987, 42.374173 ], [ -71.078003, 42.373616 ], [ -71.077547, 42.373565 ], [ -71.076833, 42.373643 ], [ -71.075969, 42.374029 ], [ -71.075253, 42.373393 ], [ -71.074903, 42.372878 ], [ -71.074289, 42.372534 ], [ -71.073857, 42.372602 ], [ -71.072688, 42.373222 ], [ -71.072466, 42.372658 ], [ -71.067115, 42.371816 ], [ -71.063984, 42.368932 ], [ -71.069478, 42.369046 ], [ -71.073721, 42.365057 ], [ -71.074793, 42.363773 ], [ -71.076093, 42.36038 ], [ -71.07681, 42.359504 ], [ -71.077952, 42.358735 ], [ -71.091002, 42.354397 ], [ -71.093041, 42.353885 ], [ -71.097245, 42.353192 ], [ -71.104318, 42.352403 ], [ -71.110083, 42.352549 ], [ -71.11246, 42.352903 ], [ -71.114087, 42.353451 ], [ -71.114916, 42.353861 ], [ -71.116522, 42.355026 ], [ -71.117066, 42.355867 ], [ -71.117166, 42.356998 ], [ -71.116578, 42.359567 ], [ -71.116936, 42.363677 ], [ -71.116873, 42.365885 ], [ -71.117082, 42.367033 ], [ -71.117692, 42.368146 ], [ -71.11819, 42.368529 ], [ -71.11896, 42.36876 ], [ -71.11955, 42.368838 ], [ -71.122044, 42.368703 ], [ -71.123113, 42.368906 ], [ -71.124173, 42.36933 ], [ -71.124903, 42.3701 ], [ -71.126024, 42.371948 ], [ -71.12701, 42.372839 ], [ -71.128615, 42.373737 ], [ -71.129625, 42.373944 ], [ -71.131147, 42.373868 ], [ -71.13207, 42.373595 ], [ -71.132719, 42.373199 ], [ -71.133087, 42.372741 ], [ -71.133179, 42.372338 ], [ -71.133091, 42.371976 ], [ -71.132182, 42.370901 ], [ -71.131862, 42.370283 ], [ -71.131762, 42.369864 ], [ -71.131971, 42.369334 ], [ -71.132373, 42.368891 ], [ -71.133803, 42.367942 ], [ -71.135719, 42.367274 ], [ -71.136658, 42.366752 ], [ -71.139147, 42.364703 ], [ -71.139692, 42.364475 ], [ -71.140408, 42.364401 ], [ -71.141391, 42.364573 ], [ -71.142483, 42.364938 ], [ -71.143667, 42.365081 ], [ -71.14427, 42.366455 ], [ -71.143267, 42.366632 ], [ -71.14256, 42.366904 ], [ -71.141009, 42.369335 ], [ -71.140372, 42.370639 ], [ -71.139992, 42.373569 ], [ -71.143925, 42.374074 ], [ -71.143631, 42.375277 ], [ -71.145937, 42.375195 ], [ -71.150239, 42.374377 ], [ -71.150378, 42.374613 ], [ -71.154372, 42.375094 ], [ -71.156231, 42.380636 ], [ -71.155051, 42.3802 ], [ -71.155334, 42.380908 ], [ -71.1552, 42.381164 ], [ -71.155623, 42.381481 ], [ -71.157769, 42.38209 ], [ -71.157971, 42.382805 ], [ -71.160399, 42.386542 ], [ -71.158382, 42.38683 ], [ -71.157892, 42.387266 ], [ -71.157108, 42.390118 ], [ -71.158446, 42.394545 ], [ -71.156385, 42.395823 ], [ -71.152057, 42.40104 ], [ -71.143587, 42.397409 ], [ -71.142053, 42.398361 ], [ -71.1409, 42.399532 ], [ -71.140372, 42.399831 ], [ -71.139416, 42.400133 ], [ -71.137859, 42.400306 ], [ -71.136303, 42.400991 ], [ -71.135006, 42.402628 ], [ -71.134568, 42.404208 ] ] ] } },
{ "type": "Feature", "properties": { "name": "Somerville" }, "geometry": { "type": "Polygon", "coordinates": [ [ [ -71.126841, 42.416804 ], [ -71.129922, 42.413327 ], [ -71.126981, 42.412308 ], [ -71.128039, 42.410711 ], [ -71.12617, 42.409286 ], [ -71.125703, 42.409989 ], [ -71.123295, 42.409169 ], [ -71.123883, 42.408227 ], [ -71.121558, 42.407436 ], [ -71.121753, 42.407116 ], [ -71.119456, 42.406327 ], [ -71.119328, 42.406525 ], [ -71.115458, 42.405119 ], [ -71.115489, 42.402905 ], [ -71.113936, 42.401016 ], [ -71.112375, 42.400227 ], [ -71.100394, 42.396224 ], [ -71.096689, 42.400455 ], [ -71.093883, 42.399632 ], [ -71.093335, 42.399343 ], [ -71.092432, 42.399086 ], [ -71.091993, 42.398761 ], [ -71.091537, 42.398676 ], [ -71.091049, 42.398369 ], [ -71.090472, 42.398411 ], [ -71.089733, 42.398704 ], [ -71.088514, 42.398904 ], [ -71.087658, 42.399309 ], [ -71.086463, 42.399459 ], [ -71.084679, 42.39867 ], [ -71.084053, 42.398929 ], [ -71.083793, 42.39886 ], [ -71.083427, 42.397778 ], [ -71.082575, 42.397273 ], [ -71.080482, 42.396579 ], [ -71.078859, 42.396246 ], [ -71.077945, 42.395891 ], [ -71.077858, 42.395742 ], [ -71.07779, 42.396002 ], [ -71.076893, 42.395739 ], [ -71.076271, 42.394626 ], [ -71.075642, 42.394976 ], [ -71.075811, 42.395278 ], [ -71.075717, 42.395305 ], [ -71.075086, 42.394125 ], [ -71.075444, 42.394475 ], [ -71.076006, 42.394465 ], [ -71.076154, 42.394306 ], [ -71.0757, 42.393772 ], [ -71.075147, 42.392659 ], [ -71.075221, 42.392572 ], [ -71.07494, 42.392059 ], [ -71.075014, 42.391842 ], [ -71.074263, 42.390565 ], [ -71.079713, 42.382921 ], [ -71.080971, 42.382323 ], [ -71.080702, 42.38104 ], [ -71.075657, 42.380196 ], [ -71.072688, 42.373222 ], [ -71.074202, 42.372527 ], [ -71.074903, 42.372878 ], [ -71.075253, 42.373393 ], [ -71.075983, 42.37403 ], [ -71.076806, 42.37365 ], [ -71.077547, 42.373565 ], [ -71.078003, 42.373616 ], [ -71.078987, 42.374173 ], [ -71.079266, 42.374161 ], [ -71.079957, 42.373808 ], [ -71.080364, 42.374118 ], [ -71.081197, 42.374056 ], [ -71.081686, 42.373945 ], [ -71.082001, 42.373555 ], [ -71.082414, 42.37341 ], [ -71.084411, 42.373301 ], [ -71.084952, 42.37346 ], [ -71.085444, 42.374045 ], [ -71.086088, 42.373059 ], [ -71.089783, 42.373948 ], [ -71.093633, 42.374248 ], [ -71.097463, 42.374431 ], [ -71.103141, 42.374329 ], [ -71.108458, 42.379112 ], [ -71.107849, 42.37937 ], [ -71.110699, 42.381687 ], [ -71.111691, 42.381768 ], [ -71.115489, 42.385037 ], [ -71.116874, 42.386701 ], [ -71.118194, 42.38801 ], [ -71.117441, 42.388376 ], [ -71.117988, 42.389079 ], [ -71.117063, 42.389565 ], [ -71.120215, 42.392642 ], [ -71.120975, 42.393707 ], [ -71.122839, 42.392243 ], [ -71.124314, 42.393585 ], [ -71.1313, 42.40158 ], [ -71.134635, 42.404259 ], [ -71.134595, 42.405445 ], [ -71.134286, 42.406404 ], [ -71.132569, 42.408696 ], [ -71.132223, 42.409523 ], [ -71.132247, 42.410178 ], [ -71.132887, 42.411973 ], [ -71.132859, 42.412457 ], [ -71.132435, 42.415219 ], [ -71.131872, 42.415291 ], [ -71.131614, 42.415511 ], [ -71.131558, 42.416839 ], [ -71.129986, 42.417566 ], [ -71.127435, 42.418135 ], [ -71.126951, 42.41784 ], [ -71.127115, 42.417208 ], [ -71.126841, 42.416804 ] ] ] } }
]
}
