{
"type": "FeatureCollection",
"name": "stlouis-jurisdiction-overlay",
"crs": { "type": "name", "properties": { "name": "urn:ogc:def:crs:OGC:1.3:CRS84" } },
"xy_coordinate_resolution": 1e-05,
"features": [
{ "type": "Feature", "properties": { "name": "St. Louis County" }, "geometry": { "type": "Polygon", "coordinates": [ [ [ -90.30183, 38.65564 ], [ -90.25174, 38.71889 ], [ -90.22813, 38.72808 ], [ -90.22463, 38.72904 ], [ -90.22178, 38.73013 ], [ -90.21977, 38.73233 ], [ -90.21834, 38.73342 ], [ -90.21291, 38.73615 ], [ -90.20666, 38.74102 ], [ -90.19742, 38.74924 ], [ -90.19546, 38.75153 ], [ -90.19198, 38.7548 ], [ -90.18925, 38.75782 ], [ -90.1864, 38.76155 ], [ -90.18505, 38.76483 ], [ -90.18387, 38.77059 ], [ -90.18418, 38.77429 ], [ -90.16672, 38.77227 ], [ -90.16636, 38.77268 ], [ -90.16274, 38.77479 ], [ -90.15518, 38.77813 ], [ -90.15052, 38.78031 ], [ -90.14714, 38.78205 ], [ -90.14149, 38.78543 ], [ -90.13627, 38.78832 ], [ -90.13243, 38.79093 ], [ -90.12285, 38.79821 ], [ -90.11942, 38.80181 ], [ -90.11861, 38.803 ], [ -90.11807, 38.80408 ], [ -90.11771, 38.80575 ], [ -90.1205, 38.81089 ], [ -90.12073, 38.81188 ], [ -90.1212, 38.81294 ], [ -90.12207, 38.81642 ], [ -90.12321, 38.81822 ], [ -90.12461, 38.81986 ], [ -90.12834, 38.82309 ], [ -90.1302, 38.82447 ], [ -90.13324, 38.82648 ], [ -90.13562, 38.82754 ], [ -90.13855, 38.82862 ], [ -90.14025, 38.82908 ], [ -90.1418, 38.82931 ], [ -90.1534, 38.82996 ], [ -90.15517, 38.82983 ], [ -90.15761, 38.82905 ], [ -90.15883, 38.82852 ], [ -90.16445, 38.82567 ], [ -90.16733, 38.82403 ], [ -90.17256, 38.82063 ], [ -90.17459, 38.81955 ], [ -90.17651, 38.8188 ], [ -90.18017, 38.81784 ], [ -90.18138, 38.81768 ], [ -90.183, 38.81764 ], [ -90.18477, 38.81776 ], [ -90.18788, 38.8182 ], [ -90.1922, 38.81935 ], [ -90.19695, 38.82115 ], [ -90.20109, 38.82321 ], [ -90.21152, 38.82973 ], [ -90.22053, 38.83473 ], [ -90.22273, 38.83615 ], [ -90.22529, 38.83757 ], [ -90.23757, 38.84315 ], [ -90.25676, 38.8514 ], [ -90.26077, 38.85355 ], [ -90.26287, 38.85498 ], [ -90.2645, 38.85627 ], [ -90.26619, 38.85784 ], [ -90.26885, 38.86093 ], [ -90.27048, 38.86315 ], [ -90.27348, 38.86829 ], [ -90.27513, 38.87061 ], [ -90.27736, 38.87326 ], [ -90.28364, 38.87923 ], [ -90.28661, 38.88247 ], [ -90.28898, 38.88423 ], [ -90.29023, 38.88495 ], [ -90.29256, 38.88615 ], [ -90.29725, 38.88792 ], [ -90.30465, 38.88997 ], [ -90.30925, 38.89091 ], [ -90.31355, 38.89148 ], [ -90.31808, 38.89174 ], [ -90.32134, 38.89158 ], [ -90.32385, 38.89119 ], [ -90.32711, 38.89028 ], [ -90.33015, 38.88884 ], [ -90.33279, 38.88737 ], [ -90.33405, 38.8864 ], [ -90.33468, 38.88575 ], [ -90.33637, 38.88338 ], [ -90.33732, 38.88101 ], [ -90.33924, 38.87724 ], [ -90.33981, 38.87535 ], [ -90.34077, 38.87348 ], [ -90.34261, 38.86655 ], [ -90.34241, 38.86175 ], [ -90.34251, 38.85855 ], [ -90.34491, 38.85085 ], [ -90.34496, 38.84937 ], [ -90.34911, 38.84169 ], [ -90.35034, 38.84025 ], [ -90.35314, 38.83711 ], [ -90.3563, 38.83403 ], [ -90.36051, 38.82945 ], [ -90.36216, 38.82786 ], [ -90.3646, 38.82644 ], [ -90.3658, 38.82588 ], [ -90.36538, 38.82558 ], [ -90.36733, 38.82461 ], [ -90.37041, 38.8233 ], [ -90.3737, 38.82229 ], [ -90.37574, 38.82198 ], [ -90.3779, 38.82181 ], [ -90.38663, 38.82185 ], [ -90.39064, 38.82212 ], [ -90.39512, 38.82268 ], [ -90.39816, 38.8233 ], [ -90.41223, 38.82708 ], [ -90.41946, 38.8284 ], [ -90.42313, 38.82877 ], [ -90.42747, 38.8289 ], [ -90.43405, 38.82874 ], [ -90.43606, 38.82845 ], [ -90.43801, 38.82795 ], [ -90.44003, 38.82721 ], [ -90.44166, 38.82632 ], [ -90.44774, 38.82156 ], [ -90.44931, 38.81963 ], [ -90.44956, 38.81989 ], [ -90.46802, 38.79755 ], [ -90.47319, 38.79098 ], [ -90.47375, 38.78909 ], [ -90.47499, 38.78646 ], [ -90.4753, 38.78546 ], [ -90.47698, 38.77885 ], [ -90.47787, 38.77597 ], [ -90.48019, 38.77051 ], [ -90.48132, 38.76685 ], [ -90.48266, 38.76347 ], [ -90.48425, 38.76079 ], [ -90.48516, 38.75954 ], [ -90.48797, 38.75625 ], [ -90.48935, 38.75477 ], [ -90.49357, 38.75077 ], [ -90.49422, 38.75029 ], [ -90.49789, 38.74815 ], [ -90.50017, 38.74639 ], [ -90.50301, 38.74486 ], [ -90.51059, 38.74195 ], [ -90.5163, 38.73916 ], [ -90.52078, 38.73731 ], [ -90.52403, 38.73573 ], [ -90.52694, 38.73406 ], [ -90.52936, 38.73235 ], [ -90.532, 38.73019 ], [ -90.5335, 38.72856 ], [ -90.53416, 38.72712 ], [ -90.53446, 38.72607 ], [ -90.5346, 38.72505 ], [ -90.53454, 38.72373 ], [ -90.53401, 38.72117 ], [ -90.53259, 38.71683 ], [ -90.53084, 38.70901 ], [ -90.53088, 38.70683 ], [ -90.5315, 38.70252 ], [ -90.53179, 38.69898 ], [ -90.5328, 38.69575 ], [ -90.53361, 38.6945 ], [ -90.53799, 38.68904 ], [ -90.54173, 38.68621 ], [ -90.54533, 38.68433 ], [ -90.55048, 38.68242 ], [ -90.55472, 38.68155 ], [ -90.55683, 38.68152 ], [ -90.56073, 38.68257 ], [ -90.56465, 38.68336 ], [ -90.56676, 38.68374 ], [ -90.56998, 38.68407 ], [ -90.57193, 38.68383 ], [ -90.57946, 38.68149 ], [ -90.58149, 38.6812 ], [ -90.58487, 38.68098 ], [ -90.58982, 38.68009 ], [ -90.59479, 38.67986 ], [ -90.59742, 38.68012 ], [ -90.60205, 38.68126 ], [ -90.60655, 38.68298 ], [ -90.61192, 38.68438 ], [ -90.61416, 38.68546 ], [ -90.61913, 38.6886 ], [ -90.62164, 38.68966 ], [ -90.6238, 38.69028 ], [ -90.62576, 38.69053 ], [ -90.62714, 38.69037 ], [ -90.62841, 38.69041 ], [ -90.63162, 38.69102 ], [ -90.63361, 38.69105 ], [ -90.63518, 38.69077 ], [ -90.6373, 38.6902 ], [ -90.63894, 38.68998 ], [ -90.64033, 38.69002 ], [ -90.64193, 38.68956 ], [ -90.64431, 38.68968 ], [ -90.64671, 38.68951 ], [ -90.64875, 38.68877 ], [ -90.65018, 38.68861 ], [ -90.65443, 38.68862 ], [ -90.65819, 38.6882 ], [ -90.66032, 38.68773 ], [ -90.66292, 38.68699 ], [ -90.66818, 38.68487 ], [ -90.67067, 38.68338 ], [ -90.67169, 38.68258 ], [ -90.67245, 38.68179 ], [ -90.67427, 38.67931 ], [ -90.67502, 38.6779 ], [ -90.67583, 38.6759 ], [ -90.67696, 38.66989 ], [ -90.67691, 38.66863 ], [ -90.68168, 38.66429 ], [ -90.68363, 38.66326 ], [ -90.68506, 38.66283 ], [ -90.68622, 38.66263 ], [ -90.68989, 38.66228 ], [ -90.69498, 38.66125 ], [ -90.69836, 38.66 ], [ -90.70031, 38.6591 ], [ -90.70223, 38.65798 ], [ -90.70344, 38.6567 ], [ -90.7068, 38.65114 ], [ -90.708, 38.64975 ], [ -90.71076, 38.64682 ], [ -90.71322, 38.64522 ], [ -90.71455, 38.64486 ], [ -90.71988, 38.64406 ], [ -90.7224, 38.64372 ], [ -90.72646, 38.64344 ], [ -90.72786, 38.64324 ], [ -90.73096, 38.64201 ], [ -90.73307, 38.64095 ], [ -90.7328, 38.62131 ], [ -90.73289, 38.59352 ], [ -90.73471, 38.5294 ], [ -90.73617, 38.46687 ], [ -90.73553, 38.46775 ], [ -90.73353, 38.47575 ], [ -90.73208, 38.47951 ], [ -90.73219, 38.48195 ], [ -90.73207, 38.4824 ], [ -90.73148, 38.48265 ], [ -90.73051, 38.48274 ], [ -90.72627, 38.48283 ], [ -90.72433, 38.48243 ], [ -90.72289, 38.48191 ], [ -90.72184, 38.48144 ], [ -90.72134, 38.48103 ], [ -90.71878, 38.47951 ], [ -90.71742, 38.47849 ], [ -90.71533, 38.47641 ], [ -90.71454, 38.47507 ], [ -90.71448, 38.47445 ], [ -90.71475, 38.47388 ], [ -90.71738, 38.47199 ], [ -90.7184, 38.47084 ], [ -90.71859, 38.47034 ], [ -90.71855, 38.46977 ], [ -90.71817, 38.46917 ], [ -90.71797, 38.46907 ], [ -90.71681, 38.46916 ], [ -90.71582, 38.46899 ], [ -90.71439, 38.46921 ], [ -90.71292, 38.46927 ], [ -90.71254, 38.46918 ], [ -90.71191, 38.46929 ], [ -90.71092, 38.46968 ], [ -90.71002, 38.47058 ], [ -90.70894, 38.47134 ], [ -90.70714, 38.47214 ], [ -90.70655, 38.4721 ], [ -90.70478, 38.47128 ], [ -90.70316, 38.47195 ], [ -90.70221, 38.47261 ], [ -90.69747, 38.47206 ], [ -90.69693, 38.47191 ], [ -90.69623, 38.47152 ], [ -90.69568, 38.47086 ], [ -90.69554, 38.47022 ], [ -90.69472, 38.46842 ], [ -90.69436, 38.46669 ], [ -90.69349, 38.4646 ], [ -90.69272, 38.46364 ], [ -90.6917, 38.46267 ], [ -90.69063, 38.46206 ], [ -90.68952, 38.46161 ], [ -90.68849, 38.46083 ], [ -90.6876, 38.45943 ], [ -90.68757, 38.45865 ], [ -90.6879, 38.45805 ], [ -90.6887, 38.4574 ], [ -90.69131, 38.45572 ], [ -90.69163, 38.45534 ], [ -90.69162, 38.45463 ], [ -90.69106, 38.45367 ], [ -90.69073, 38.45341 ], [ -90.68925, 38.45282 ], [ -90.68846, 38.45188 ], [ -90.68801, 38.45165 ], [ -90.68704, 38.45149 ], [ -90.68651, 38.45156 ], [ -90.68582, 38.45207 ], [ -90.68438, 38.45464 ], [ -90.68402, 38.45498 ], [ -90.68325, 38.45538 ], [ -90.6825, 38.45539 ], [ -90.68083, 38.45478 ], [ -90.6804, 38.45442 ], [ -90.68018, 38.45401 ], [ -90.68028, 38.45335 ], [ -90.68099, 38.45207 ], [ -90.68142, 38.45159 ], [ -90.68313, 38.45042 ], [ -90.68647, 38.44917 ], [ -90.6872, 38.44856 ], [ -90.68745, 38.44803 ], [ -90.68746, 38.44766 ], [ -90.68729, 38.44742 ], [ -90.68663, 38.4473 ], [ -90.68586, 38.44669 ], [ -90.68526, 38.44651 ], [ -90.68259, 38.44666 ], [ -90.68177, 38.44632 ], [ -90.68081, 38.44568 ], [ -90.67982, 38.44567 ], [ -90.67602, 38.44625 ], [ -90.67454, 38.44632 ], [ -90.67075, 38.44712 ], [ -90.66803, 38.44804 ], [ -90.66551, 38.44867 ], [ -90.66422, 38.44886 ], [ -90.66086, 38.45064 ], [ -90.65983, 38.45137 ], [ -90.65679, 38.45449 ], [ -90.6546, 38.45622 ], [ -90.65373, 38.45902 ], [ -90.65411, 38.45969 ], [ -90.65538, 38.46077 ], [ -90.65591, 38.46154 ], [ -90.65648, 38.46246 ], [ -90.65712, 38.46409 ], [ -90.65793, 38.46739 ], [ -90.6581, 38.4699 ], [ -90.65906, 38.47311 ], [ -90.65987, 38.47396 ], [ -90.66008, 38.47521 ], [ -90.66007, 38.47782 ], [ -90.66017, 38.4783 ], [ -90.66059, 38.47873 ], [ -90.6607, 38.47919 ], [ -90.66033, 38.47984 ], [ -90.66039, 38.48018 ], [ -90.66004, 38.48128 ], [ -90.65952, 38.48233 ], [ -90.65885, 38.48327 ], [ -90.65556, 38.48674 ], [ -90.65404, 38.48754 ], [ -90.65139, 38.48798 ], [ -90.64588, 38.48805 ], [ -90.64352, 38.48791 ], [ -90.64048, 38.48719 ], [ -90.63888, 38.48688 ], [ -90.63817, 38.4869 ], [ -90.63386, 38.48594 ], [ -90.63301, 38.48547 ], [ -90.63257, 38.4847 ], [ -90.63181, 38.48381 ], [ -90.62975, 38.4819 ], [ -90.62931, 38.48133 ], [ -90.62871, 38.47964 ], [ -90.62847, 38.47815 ], [ -90.6277, 38.47693 ], [ -90.62623, 38.47577 ], [ -90.62583, 38.47547 ], [ -90.62137, 38.47355 ], [ -90.61761, 38.47164 ], [ -90.61524, 38.47119 ], [ -90.61414, 38.47115 ], [ -90.61165, 38.47231 ], [ -90.61061, 38.47298 ], [ -90.60658, 38.47636 ], [ -90.60489, 38.47757 ], [ -90.60265, 38.47962 ], [ -90.60154, 38.48246 ], [ -90.59879, 38.48773 ], [ -90.59732, 38.49107 ], [ -90.59588, 38.49343 ], [ -90.59401, 38.49485 ], [ -90.59367, 38.49529 ], [ -90.59346, 38.49606 ], [ -90.59289, 38.49697 ], [ -90.5919, 38.49924 ], [ -90.59112, 38.50165 ], [ -90.59073, 38.50175 ], [ -90.51743, 38.50139 ], [ -90.48115, 38.50104 ], [ -90.46978, 38.50128 ], [ -90.4614, 38.50125 ], [ -90.40497, 38.5006 ], [ -90.40508, 38.49864 ], [ -90.40553, 38.49732 ], [ -90.40722, 38.49586 ], [ -90.40741, 38.49525 ], [ -90.40731, 38.4931 ], [ -90.407, 38.49187 ], [ -90.40713, 38.49148 ], [ -90.40683, 38.49061 ], [ -90.40531, 38.48798 ], [ -90.40534, 38.48735 ], [ -90.40564, 38.48654 ], [ -90.40618, 38.4857 ], [ -90.40674, 38.48503 ], [ -90.40741, 38.48462 ], [ -90.40816, 38.48345 ], [ -90.40956, 38.4819 ], [ -90.41079, 38.48132 ], [ -90.41258, 38.48077 ], [ -90.41363, 38.4807 ], [ -90.41451, 38.48082 ], [ -90.41509, 38.48104 ], [ -90.41866, 38.48333 ], [ -90.4203, 38.48396 ], [ -90.42133, 38.48386 ], [ -90.42201, 38.48356 ], [ -90.4225, 38.48314 ], [ -90.42283, 38.48249 ], [ -90.42284, 38.4822 ], [ -90.42189, 38.47998 ], [ -90.42179, 38.47843 ], [ -90.42146, 38.47648 ], [ -90.42069, 38.47513 ], [ -90.41893, 38.47097 ], [ -90.41643, 38.46708 ], [ -90.41485, 38.46338 ], [ -90.41457, 38.4619 ], [ -90.41476, 38.46007 ], [ -90.41441, 38.45697 ], [ -90.413, 38.45501 ], [ -90.41116, 38.4534 ], [ -90.40956, 38.45272 ], [ -90.40819, 38.45252 ], [ -90.40468, 38.45281 ], [ -90.40279, 38.45322 ], [ -90.4007, 38.454 ], [ -90.39932, 38.45494 ], [ -90.39846, 38.45571 ], [ -90.39741, 38.45748 ], [ -90.39632, 38.45825 ], [ -90.39471, 38.45849 ], [ -90.39294, 38.45809 ], [ -90.39163, 38.45733 ], [ -90.39096, 38.45638 ], [ -90.3907, 38.45537 ], [ -90.39098, 38.4544 ], [ -90.39241, 38.45226 ], [ -90.39264, 38.45171 ], [ -90.39222, 38.45102 ], [ -90.39103, 38.45056 ], [ -90.39031, 38.45089 ], [ -90.38739, 38.45139 ], [ -90.37834, 38.45252 ], [ -90.37516, 38.45317 ], [ -90.36795, 38.45487 ], [ -90.36489, 38.45541 ], [ -90.36023, 38.45682 ], [ -90.35816, 38.45761 ], [ -90.35703, 38.45785 ], [ -90.35363, 38.45822 ], [ -90.35064, 38.45808 ], [ -90.34812, 38.45774 ], [ -90.34423, 38.45688 ], [ -90.33892, 38.45535 ], [ -90.33709, 38.45447 ], [ -90.33644, 38.45398 ], [ -90.33613, 38.45349 ], [ -90.33597, 38.45256 ], [ -90.33574, 38.44819 ], [ -90.33925, 38.44294 ], [ -90.34087, 38.44088 ], [ -90.34182, 38.43994 ], [ -90.34619, 38.43669 ], [ -90.34746, 38.43522 ], [ -90.34797, 38.43406 ], [ -90.34841, 38.43194 ], [ -90.34859, 38.43008 ], [ -90.34865, 38.42883 ], [ -90.34844, 38.4265 ], [ -90.34712, 38.42051 ], [ -90.34712, 38.41949 ], [ -90.34681, 38.41846 ], [ -90.34677, 38.4168 ], [ -90.34701, 38.41521 ], [ -90.34842, 38.40982 ], [ -90.34861, 38.40832 ], [ -90.34859, 38.40707 ], [ -90.34765, 38.40331 ], [ -90.34575, 38.39954 ], [ -90.34481, 38.39732 ], [ -90.34463, 38.39192 ], [ -90.34435, 38.39075 ], [ -90.34213, 38.38729 ], [ -90.34152, 38.38834 ], [ -90.34039, 38.38929 ], [ -90.33791, 38.39091 ], [ -90.33428, 38.39484 ], [ -90.33002, 38.39742 ], [ -90.32584, 38.40096 ], [ -90.32047, 38.40653 ], [ -90.31437, 38.41235 ], [ -90.31117, 38.41568 ], [ -90.30421, 38.41995 ], [ -90.29687, 38.42481 ], [ -90.29368, 38.42746 ], [ -90.29108, 38.43089 ], [ -90.2899, 38.43314 ], [ -90.28854, 38.43686 ], [ -90.28567, 38.44566 ], [ -90.28404, 38.45167 ], [ -90.28268, 38.45754 ], [ -90.28239, 38.46055 ], [ -90.28093, 38.46641 ], [ -90.27919, 38.47187 ], [ -90.27908, 38.47401 ], [ -90.27853, 38.47768 ], [ -90.27784, 38.47991 ], [ -90.27679, 38.48249 ], [ -90.27471, 38.48661 ], [ -90.27387, 38.48906 ], [ -90.27328, 38.49145 ], [ -90.27218, 38.49425 ], [ -90.27126, 38.49758 ], [ -90.27054, 38.50154 ], [ -90.26955, 38.50411 ], [ -90.26876, 38.50719 ], [ -90.26632, 38.51269 ], [ -90.26492, 38.51723 ], [ -90.26406, 38.52103 ], [ -90.25741, 38.53185 ], [ -90.26062, 38.53317 ], [ -90.2631, 38.53405 ], [ -90.2639, 38.53388 ], [ -90.26551, 38.53385 ], [ -90.2661, 38.53395 ], [ -90.26687, 38.53427 ], [ -90.26815, 38.53597 ], [ -90.26851, 38.53698 ], [ -90.26907, 38.53756 ], [ -90.27104, 38.53868 ], [ -90.27139, 38.53933 ], [ -90.27138, 38.54014 ], [ -90.27105, 38.5409 ], [ -90.27098, 38.54198 ], [ -90.27185, 38.54456 ], [ -90.27156, 38.54478 ], [ -90.27218, 38.54679 ], [ -90.27234, 38.54842 ], [ -90.27409, 38.54938 ], [ -90.27798, 38.55058 ], [ -90.2808, 38.55233 ], [ -90.28374, 38.55392 ], [ -90.28719, 38.55556 ], [ -90.28977, 38.55707 ], [ -90.29698, 38.56233 ], [ -90.29994, 38.56524 ], [ -90.31358, 38.57877 ], [ -90.32052, 38.59415 ], [ -90.31085, 38.61821 ], [ -90.30862, 38.63017 ], [ -90.30759, 38.63249 ], [ -90.30649, 38.63336 ], [ -90.30586, 38.6358 ], [ -90.30552, 38.63858 ], [ -90.30481, 38.64244 ], [ -90.30362, 38.64489 ], [ -90.30183, 38.65564 ] ] ] } },
{ "type": "Feature", "properties": { "name": "City of St. Louis" }, "geometry": { "type": "Polygon", "coordinates": [ [ [ -90.32052, 38.59415 ], [ -90.31358, 38.57877 ], [ -90.30255, 38.56782 ], [ -90.29698, 38.56233 ], [ -90.28977, 38.55707 ], [ -90.28719, 38.55556 ], [ -90.28374, 38.55392 ], [ -90.2808, 38.55233 ], [ -90.27798, 38.55058 ], [ -90.27409, 38.54938 ], [ -90.27234, 38.54842 ], [ -90.27218, 38.54679 ], [ -90.27156, 38.54478 ], [ -90.27185, 38.54456 ], [ -90.27098, 38.54198 ], [ -90.27105, 38.5409 ], [ -90.27138, 38.54014 ], [ -90.27139, 38.53933 ], [ -90.27104, 38.53868 ], [ -90.26907, 38.53756 ], [ -90.26851, 38.53698 ], [ -90.26815, 38.53597 ], [ -90.26687, 38.53427 ], [ -90.2661, 38.53395 ], [ -90.26551, 38.53385 ], [ -90.2639, 38.53388 ], [ -90.2631, 38.53405 ], [ -90.25778, 38.53201 ], [ -90.24891, 38.54478 ], [ -90.2242, 38.57508 ], [ -90.2221, 38.57648 ], [ -90.2167, 38.57878 ], [ -90.2101, 38.58398 ], [ -90.2025, 38.58868 ], [ -90.196, 38.59448 ], [ -90.1918, 38.59898 ], [ -90.1845, 38.61158 ], [ -90.17881, 38.62916 ], [ -90.178, 38.63378 ], [ -90.1777, 38.64278 ], [ -90.1811, 38.65958 ], [ -90.1826, 38.66538 ], [ -90.1864, 38.67478 ], [ -90.1952, 38.68758 ], [ -90.2022, 38.69348 ], [ -90.2092, 38.70278 ], [ -90.212, 38.71178 ], [ -90.21191, 38.71795 ], [ -90.21141, 38.72135 ], [ -90.20991, 38.72605 ], [ -90.20518, 38.7322 ], [ -90.1913, 38.74298 ], [ -90.18361, 38.74675 ], [ -90.1763, 38.75448 ], [ -90.1751, 38.76028 ], [ -90.1713, 38.76658 ], [ -90.16672, 38.77227 ], [ -90.18418, 38.77429 ], [ -90.18387, 38.77059 ], [ -90.18505, 38.76483 ], [ -90.1864, 38.76155 ], [ -90.18925, 38.75782 ], [ -90.19198, 38.7548 ], [ -90.19546, 38.75153 ], [ -90.19742, 38.74924 ], [ -90.20815, 38.7398 ], [ -90.21291, 38.73615 ], [ -90.21834, 38.73342 ], [ -90.21977, 38.73233 ], [ -90.22178, 38.73013 ], [ -90.22463, 38.72904 ], [ -90.22813, 38.72808 ], [ -90.25174, 38.71889 ], [ -90.30183, 38.65564 ], [ -90.30362, 38.64489 ], [ -90.30481, 38.64244 ], [ -90.30552, 38.63858 ], [ -90.30586, 38.6358 ], [ -90.30649, 38.63336 ], [ -90.30759, 38.63249 ], [ -90.30862, 38.63017 ], [ -90.31085, 38.61821 ], [ -90.32052, 38.59415 ] ] ] } }
]
}
